fullname,ward.id,name,district,region,long,lat,area.km2,status,pop2012,popdens2012,popdensglw.cattle,popglw.cattle,pop.cattle,popdens.cattle,prodsys,market,nearest.secondary,mindist.secondary,nearest.primary,mindist.primary
arusha/arusha/bangata,lon36.747.lat-3.323,Bangata,Arusha,Arusha,36.74684955,-3.322808873,14.5,Rural Ward,9136,630.1,15.349,223,confidential,confidential,Smallholder,None,arusha/arusha/bwawani,27.4,arusha/arusha/olmotonyi,10.34
arusha/arusha/bwawani,lon36.797.lat-3.564,Bwawani,Arusha,Arusha,36.79660552,-3.564198682,175.5,Rural Ward,11117,63.3,22.655,3976,confidential,confidential,Agropastoral,Secondary,arusha/monduli/meserani,46.67,arusha/meru/mbuguni,11.61
arusha/arusha/ilkidinga,lon36.729.lat-3.265,Ilkiding'a,Arusha,Arusha,36.72902394,-3.265056301,56.7,Rural Ward,10850,191.4,0,0,confidential,confidential,Smallholder,None,arusha/arusha/bwawani,34.1,arusha/arusha/olmotonyi,9.19
arusha/arusha/kimnyaki,lon36.676.lat-3.313,Kimnyaki,Arusha,Arusha,36.67577706,-3.313429566,3,Rural Ward,3487,1162.3,36.053,108,confidential,confidential,Smallholder,None,arusha/arusha/bwawani,30.94,arusha/arusha/olmotonyi,2.48
arusha/arusha/kiranyi,lon36.671.lat-3.350,Kiranyi,Arusha,Arusha,36.670902,-3.350459162,4.5,Mixed Ward,25469,5659.8,18.026,81,confidential,confidential,Urban,None,arusha/arusha/bwawani,27.56,arusha/arusha/olmotonyi,5.49
arusha/arusha/kisongo,lon36.523.lat-3.377,Kisongo,Arusha,Arusha,36.52332316,-3.377408944,56.6,Rural Ward,8769,154.9,0,0,confidential,confidential,Smallholder,None,arusha/monduli/meserani,27.82,arusha/arushaurban/olasiti,11.21
arusha/arusha/mateves,lon36.598.lat-3.445,Mateves,Arusha,Arusha,36.59766983,-3.445227387,104.5,Rural Ward,15632,149.6,21.181,2213,confidential,confidential,Smallholder,None,arusha/arusha/bwawani,25.74,arusha/arushaurban/olasiti,5.93
arusha/arusha/mlangarini,lon36.771.lat-3.443,Mlangarini,Arusha,Arusha,36.77107644,-3.442771594,75.6,Rural Ward,12983,171.7,16.744,1266,confidential,confidential,Agropastoral,None,arusha/arusha/bwawani,13.8,arusha/arushaurban/sokonii,10.7
arusha/arusha/moivo,lon36.691.lat-3.349,Moivo,Arusha,Arusha,36.69130008,-3.349491099,4.7,Mixed Ward,27151,5776.8,20.608,97,confidential,confidential,Urban,None,arusha/arusha/bwawani,26.58,arusha/arusha/olmotonyi,6.46
arusha/arusha/mussa,lon36.527.lat-3.321,Mussa,Arusha,Arusha,36.52677537,-3.321064237,71.7,Rural Ward,11836,165.1,5.714,410,confidential,confidential,Smallholder,None,arusha/monduli/meserani,33.29,arusha/arushaurban/olasiti,13.6
arusha/arusha/mwandeti,lon36.565.lat-3.255,Mwandeti,Arusha,Arusha,36.56493333,-3.254645341,61.6,Rural Ward,17390,282.3,30.244,1863,confidential,confidential,Smallholder,None,arusha/monduli/meserani,41.8,arusha/arusha/olmotonyi,11.45
arusha/arusha/nduruma,lon36.812.lat-3.491,Nduruma,Arusha,Arusha,36.81231944,-3.491172228,62.8,Rural Ward,12042,191.8,14.816,930,confidential,confidential,Agropastoral,None,arusha/arusha/bwawani,8.31,arusha/meru/mbuguni,12.16
arusha/arusha/oldonyosambu,lon36.741.lat-3.123,Oldonyosambu,Arusha,Arusha,36.74070298,-3.122627272,216.4,Rural Ward,16484,76.2,14.806,3204,confidential,confidential,Smallholder,Primary,arusha/arusha/bwawani,49.49,arusha/meru/ngarenanyuki,11.91
arusha/arusha/oljoro,lon36.660.lat-3.571,Oljoro,Arusha,Arusha,36.66004257,-3.571184524,64.7,Rural Ward,7896,122,7.926,513,confidential,confidential,Agropastoral,Primary,arusha/arusha/bwawani,15.18,arusha/arushaurban/sokonii,17.66
arusha/arusha/olkokola,lon36.625.lat-3.226,Olkokola,Arusha,Arusha,36.62504229,-3.226237042,93.8,Rural Ward,24728,263.6,11.232,1054,confidential,confidential,Smallholder,None,arusha/arusha/bwawani,42.13,arusha/arusha/olmotonyi,9.24
arusha/arusha/olmotonyi,lon36.656.lat-3.303,Olmotonyi,Arusha,Arusha,36.65575454,-3.303459594,11.7,Mixed Ward,18560,1586.3,17.257,202,confidential,confidential,Smallholder,Primary,arusha/arusha/bwawani,32.94,arusha/arushaurban/olasiti,11.14
arusha/arusha/olorieni,lon36.645.lat-3.337,Olorieni,Arusha,Arusha,36.64472355,-3.337126384,24.8,Rural Ward,22434,904.6,36.053,894,confidential,confidential,Smallholder,None,arusha/arusha/bwawani,30.36,arusha/arusha/olmotonyi,3.94
arusha/arusha/oltoroto,lon36.710.lat-3.333,Oltoroto,Arusha,Arusha,36.71010652,-3.333323835,11.9,Rural Ward,15451,1298.4,8.642,103,confidential,confidential,Smallholder,None,arusha/arusha/bwawani,27.41,arusha/arusha/olmotonyi,6.89
arusha/arusha/oltrumet,lon36.614.lat-3.302,Oltrumet,Arusha,Arusha,36.61390272,-3.302248337,37.2,Rural Ward,10226,274.9,13.99,520,confidential,confidential,Smallholder,None,arusha/arusha/bwawani,35.49,arusha/arusha/olmotonyi,4.65
arusha/arusha/sambasha,lon36.696.lat-3.241,Sambasha,Arusha,Arusha,36.69553641,-3.240588447,71.9,Rural Ward,9484,131.9,9.745,701,confidential,confidential,Smallholder,None,arusha/arusha/bwawani,37.69,arusha/arusha/olmotonyi,8.27
arusha/arusha/sokonii,lon36.728.lat-3.344,Sokon II,Arusha,Arusha,36.72790478,-3.344205884,14.1,Mixed Ward,32073,2274.7,15.46,218,confidential,confidential,Smallholder,None,arusha/arusha/bwawani,25.62,arusha/arusha/olmotonyi,9.2
arusha/arushaurban/baraa,lon36.737.lat-3.376,Baraa,Arusha Urban,Arusha,36.73699628,-3.376318926,4.5,Urban Ward,12498,2777.3,36.741,165,confidential,confidential,Smallholder,None,arusha/arusha/bwawani,21.91,arusha/arushaurban/sokonii,7.63
arusha/arushaurban/darajambili,lon36.690.lat-3.383,Daraja Mbili,Arusha Urban,Arusha,36.6899228,-3.383121,1.2,Urban Ward,19491,16242.5,0,0,confidential,confidential,Urban,None,arusha/arusha/bwawani,23.36,arusha/arushaurban/sokonii,3.58
arusha/arushaurban/elerai,lon36.662.lat-3.365,Elerai,Arusha Urban,Arusha,36.66199426,-3.365322225,3.7,Urban Ward,40749,11013.2,0,0,confidential,confidential,Urban,None,arusha/arusha/bwawani,26.69,arusha/arushaurban/sokonii,5.69
arusha/arushaurban/engutoto,lon36.712.lat-3.435,Engutoto,Arusha Urban,Arusha,36.71187516,-3.434760699,7.8,Urban Ward,7426,952.1,17.266,135,confidential,confidential,Smallholder,None,arusha/arusha/bwawani,17.19,arusha/arushaurban/sokonii,4.32
arusha/arushaurban/kaloleni,lon36.688.lat-3.362,Kaloleni,Arusha Urban,Arusha,36.68756477,-3.362267736,0.9,Urban Ward,9591,10656.7,0,0,confidential,confidential,Urban,None,arusha/arusha/bwawani,25.51,arusha/arushaurban/sokonii,5.77
arusha/arushaurban/kati,lon36.687.lat-3.372,Kati,Arusha Urban,Arusha,36.6874387,-3.371736042,0.6,Urban Ward,3114,5190,0,0,confidential,confidential,Urban,None,arusha/arusha/bwawani,24.59,arusha/arushaurban/sokonii,4.73
arusha/arushaurban/kimandolu,lon36.718.lat-3.373,Kimandolu,Arusha Urban,Arusha,36.7180358,-3.372669065,5.3,Urban Ward,27649,5216.8,37.739,200,confidential,confidential,Urban,None,arusha/arusha/bwawani,23.01,arusha/arushaurban/sokonii,6.26
arusha/arushaurban/lemara,lon36.698.lat-3.415,Lemara,Arusha Urban,Arusha,36.69814123,-3.415262501,7,Urban Ward,19564,2794.9,19.166,134,confidential,confidential,Urban,None,arusha/arusha/bwawani,19.84,arusha/arushaurban/sokonii,2.1
arusha/arushaurban/levolosi,lon36.681.lat-3.367,Levolosi,Arusha Urban,Arusha,36.68086715,-3.367469028,1.1,Urban Ward,8838,8034.5,0,0,confidential,confidential,Smallholder,None,arusha/arusha/bwawani,25.37,arusha/arushaurban/sokonii,5.12
arusha/arushaurban/moshono,lon36.735.lat-3.412,Moshono,Arusha Urban,Arusha,36.7351126,-3.4124319,24.6,Urban Ward,20698,841.4,34.532,849,confidential,confidential,Smallholder,None,arusha/arusha/bwawani,18.2,arusha/arushaurban/sokonii,6.2
arusha/arushaurban/ngarenaro,lon36.675.lat-3.366,Ngarenaro,Arusha Urban,Arusha,36.67466818,-3.366290539,1,Urban Ward,12382,12382,0,0,confidential,confidential,Urban,None,arusha/arusha/bwawani,25.84,arusha/arushaurban/sokonii,5.28
arusha/arushaurban/olasiti,lon36.622.lat-3.398,Olasiti,Arusha Urban,Arusha,36.62217983,-3.397856971,66.3,Urban Ward,36361,548.4,45.879,3042,confidential,confidential,Smallholder,Primary,arusha/arusha/bwawani,26.78,arusha/arushaurban/sokonii,6.57
arusha/arushaurban/oloirieni,lon36.715.lat-3.388,Oloirieni,Arusha Urban,Arusha,36.71548052,-3.387991301,3.2,Urban Ward,18679,5837.2,37.739,121,confidential,confidential,Urban,None,arusha/arusha/bwawani,21.56,arusha/arushaurban/sokonii,4.92
arusha/arushaurban/sekei,lon36.699.lat-3.366,Sekei,Arusha Urban,Arusha,36.69930594,-3.366347557,2.6,Urban Ward,9213,3543.5,18.87,49,confidential,confidential,Urban,None,arusha/arusha/bwawani,24.51,arusha/arushaurban/sokonii,5.7
arusha/arushaurban/sokonii,lon36.679.lat-3.414,Sokoni I,Arusha Urban,Arusha,36.67926957,-3.413524416,18.1,Urban Ward,73331,4051.4,42.131,763,confidential,confidential,Urban,Primary,arusha/arusha/bwawani,21.22,arusha/arushaurban/olasiti,6.57
arusha/arushaurban/sombetini,lon36.662.lat-3.388,Sombetini,Arusha Urban,Arusha,36.66207517,-3.388005669,5.2,Urban Ward,48268,9282.3,21.065,110,confidential,confidential,Urban,None,arusha/arusha/bwawani,24.63,arusha/arushaurban/sokonii,3.42
arusha/arushaurban/terrat,lon36.680.lat-3.490,Terrat,Arusha Urban,Arusha,36.68017562,-3.489517122,106.2,Urban Ward,21790,205.2,10.332,1097,confidential,confidential,Smallholder,None,arusha/arusha/bwawani,15.36,arusha/arushaurban/sokonii,8.45
arusha/arushaurban/themi,lon36.705.lat-3.391,Themi,Arusha Urban,Arusha,36.70485457,-3.391315421,6.2,Urban Ward,9458,1525.5,28.601,177,confidential,confidential,Urban,None,arusha/arusha/bwawani,21.75,arusha/arushaurban/sokonii,3.76
arusha/arushaurban/ungaltd,lon36.679.lat-3.378,Unga Ltd,Arusha Urban,Arusha,36.67898176,-3.37789164,1.5,Urban Ward,17342,11561.3,0,0,confidential,confidential,Urban,None,arusha/arusha/bwawani,24.49,arusha/arushaurban/sokonii,3.96
arusha/karatu/baray,lon35.106.lat-3.728,Baray,Karatu,Arusha,35.10629133,-3.728072442,1151.8,Rural Ward,23554,20.4,24.915,28697,confidential,confidential,Agropastoral,None,arusha/monduli/meserani,141.9,manyara/mbulu/bashay,33.81
arusha/karatu/buger,lon35.662.lat-3.659,Buger,Karatu,Arusha,35.6623175,-3.658924028,210.5,Rural Ward,9919,47.1,10.666,2245,confidential,confidential,Agropastoral,None,arusha/monduli/meserani,79.73,manyara/babati/magara,10.63
arusha/karatu/daa,lon35.487.lat-3.409,Daa,Karatu,Arusha,35.48688902,-3.40905235,225.7,Rural Ward,9868,43.7,6.975,1574,confidential,confidential,Agropastoral,Primary,arusha/monduli/meserani,100.54,arusha/karatu/endabash,15.93
arusha/karatu/endabash,lon35.556.lat-3.535,Endabash,Karatu,Arusha,35.55596907,-3.534640947,281.2,Rural Ward,14358,51.1,21.711,6105,confidential,confidential,Agropastoral,Primary,arusha/monduli/meserani,91.19,arusha/karatu/daa,15.93
arusha/karatu/endamaghang,lon35.355.lat-3.376,Endamaghang,Karatu,Arusha,35.35484541,-3.376043327,93.7,Rural Ward,16267,173.6,14.505,1359,confidential,confidential,Agropastoral,None,arusha/monduli/meserani,115.63,arusha/karatu/daa,15.11
arusha/karatu/endamarariek,lon35.710.lat-3.481,Endamarariek,Karatu,Arusha,35.71014642,-3.481427783,245.5,Rural Ward,24996,101.8,12.187,2992,confidential,confidential,Agropastoral,None,arusha/monduli/meserani,74.75,arusha/karatu/karatu,12.03
arusha/karatu/ganako,lon35.639.lat-3.321,Ganako,Karatu,Arusha,35.63900374,-3.321326416,65.5,Rural Ward,15481,236.4,29.341,1922,confidential,confidential,Smallholder,None,arusha/monduli/meserani,86.75,arusha/karatu/karatu,8.41
arusha/karatu/kansay,lon35.535.lat-3.635,Kansay,Karatu,Arusha,35.53522929,-3.63523145,206.5,Rural Ward,14198,68.8,13.271,2740,confidential,confidential,Agropastoral,None,arusha/monduli/meserani,93.55,arusha/karatu/endabash,11.42
arusha/karatu/karatu,lon35.693.lat-3.375,Karatu,Karatu,Arusha,35.69271029,-3.374660994,51.3,Mixed Ward,26617,518.8,16.484,846,confidential,confidential,Smallholder,Primary,arusha/monduli/meserani,79.24,arusha/monduli/mtowambu,18.63
arusha/karatu/mangola,lon35.281.lat-3.549,Mang'ola,Karatu,Arusha,35.28072371,-3.549023129,128.2,Rural Ward,6087,47.5,12.156,1558,confidential,confidential,Agropastoral,None,arusha/monduli/meserani,121.65,arusha/karatu/daa,27.67
arusha/karatu/mbulumbulu,lon35.880.lat-3.201,Mbulumbulu,Karatu,Arusha,35.88009442,-3.201465843,211,Rural Ward,21764,103.1,12.001,2532,confidential,confidential,Agropastoral,Primary,arusha/monduli/meserani,69.33,arusha/monduli/mtowambu,21.66
arusha/karatu/oldean,lon35.540.lat-3.348,Oldean,Karatu,Arusha,35.54002807,-3.347801722,70.7,Rural Ward,6870,97.2,12.13,858,confidential,confidential,Smallholder,None,arusha/monduli/meserani,96.35,arusha/karatu/daa,9.01
arusha/karatu/qurus,lon35.626.lat-3.398,Qurus,Karatu,Arusha,35.62625294,-3.398322068,100.8,Rural Ward,15919,157.9,16.102,1623,confidential,confidential,Smallholder,None,arusha/monduli/meserani,85.67,arusha/karatu/karatu,7.83
arusha/karatu/rhotia,lon35.771.lat-3.357,Rhotia,Karatu,Arusha,35.7711279,-3.356747458,205.2,Rural Ward,24268,118.3,16.926,3473,confidential,confidential,Agropastoral,None,arusha/monduli/meserani,71.62,arusha/karatu/karatu,8.93
arusha/longido/elengatadapash,lon36.276.lat-2.981,Eleng'ata Dapash,Longido,Arusha,36.27618561,-2.980870172,450.9,Rural Ward,10221,22.7,16.578,7475,confidential,confidential,Pastoral,None,arusha/monduli/meserani,67.55,arusha/longido/kitumbeine,20.8
arusha/longido/engarenaibor,lon36.545.lat-2.505,Engarenaibor,Longido,Arusha,36.54546711,-2.505286025,429.7,Rural Ward,11607,27,22.302,9583,confidential,confidential,Pastoral,Primary,arusha/monduli/meserani,120.97,arusha/longido/orbomba,33.95
arusha/longido/engikaret,lon36.599.lat-2.950,Engikaret,Longido,Arusha,36.59945752,-2.949813528,914.5,Rural Ward,6527,7.1,22.116,20225,confidential,confidential,Pastoral,None,arusha/arusha/bwawani,71.74,arusha/longido/orbomba,21.05
arusha/longido/gelailumbwa,lon36.188.lat-2.538,Gelai lumbwa,Longido,Arusha,36.18848041,-2.537704093,884.8,Rural Ward,6198,7,13.591,12025,confidential,confidential,Pastoral,Primary,arusha/monduli/meserani,117.77,arusha/longido/kitumbeine,35.17
arusha/longido/gelaimeirugoi,lon36.042.lat-2.716,Gelai Meirugoi,Longido,Arusha,36.04191872,-2.715691294,830.1,Rural Ward,9173,11.1,12.623,10478,confidential,confidential,Pastoral,None,arusha/monduli/meserani,103.04,arusha/longido/gelailumbwa,25.63
arusha/longido/ilorienito,lon36.191.lat-2.869,Ilorienito,Longido,Arusha,36.19081283,-2.868761209,140.3,Rural Ward,5571,39.7,20.868,2928,confidential,confidential,Pastoral,None,arusha/monduli/meserani,81.73,arusha/longido/kitumbeine,18.95
arusha/longido/kamwanga,lon37.288.lat-2.845,Kamwanga,Longido,Arusha,37.28831397,-2.844778429,53,Rural Ward,10146,191.4,14.448,766,confidential,confidential,Smallholder,None,kilimanjaro/hai/machamekusini,56.91,kilimanjaro/moshi/kiboshomagharibi,40.97
arusha/longido/kimokouwa,lon36.738.lat-2.607,Kimokouwa,Longido,Arusha,36.73831677,-2.606522524,411.9,Rural Ward,7806,19,18.494,7618,confidential,confidential,Pastoral,None,kilimanjaro/hai/machamekusini,101.12,arusha/longido/orbomba,20.2
arusha/longido/kitumbeine,lon36.351.lat-2.809,Kitumbeine,Longido,Arusha,36.35077086,-2.809309279,546.7,Rural Ward,7233,13.2,20.309,11103,confidential,confidential,Pastoral,Primary,arusha/monduli/meserani,85.75,arusha/longido/gelailumbwa,35.17
arusha/longido/longido,lon36.712.lat-2.719,Longido,Longido,Arusha,36.71204692,-2.719006451,22.4,Urban Ward,2285,102,15.649,351,confidential,confidential,Pastoral,None,kilimanjaro/hai/machamekusini,92.96,arusha/longido/orbomba,7.51
arusha/longido/matale,lon36.296.lat-2.359,Matale,Longido,Arusha,36.29623812,-2.35893673,686.6,Rural Ward,4411,6.4,13.957,9583,confidential,confidential,Pastoral,None,arusha/monduli/meserani,136.07,arusha/longido/gelailumbwa,23.2
arusha/longido/mundarara,lon36.433.lat-2.629,Mundarara,Longido,Arusha,36.43295443,-2.629423213,615.1,Rural Ward,7301,11.9,20.956,12890,confidential,confidential,Pastoral,None,arusha/monduli/meserani,105.89,arusha/longido/engarenaibor,18.62
arusha/longido/namanga,lon36.784.lat-2.552,Namanga,Longido,Arusha,36.78445683,-2.552157468,4.3,Mixed Ward,9189,2137,15.347,66,confidential,confidential,Pastoral,None,kilimanjaro/hai/machamekusini,103.48,arusha/longido/engarenaibor,27.06
arusha/longido/olmolog,lon37.099.lat-2.837,Olmolog,Longido,Arusha,37.09851122,-2.836535619,338.8,Rural Ward,8764,25.9,12.728,4312,confidential,confidential,Pastoral,None,kilimanjaro/hai/machamekusini,60.26,arusha/longido/tingatinga,21.37
arusha/longido/orbomba,lon36.681.lat-2.779,Orbomba,Longido,Arusha,36.68095139,-2.778931231,630.5,Rural Ward,7900,12.5,20.369,12843,confidential,confidential,Pastoral,Primary,arusha/arusha/bwawani,88.26,arusha/longido/tingatinga,25.94
arusha/longido/tingatinga,lon36.906.lat-2.841,Tingatinga,Longido,Arusha,36.90613502,-2.840994469,1113.2,Rural Ward,8821,7.9,14.802,16478,confidential,confidential,Pastoral,Primary,kilimanjaro/hai/machamekusini,69.08,arusha/longido/orbomba,25.94
arusha/meru/akheri,lon36.785.lat-3.375,Akheri,Meru,Arusha,36.78528108,-3.375051986,17.6,Mixed Ward,13699,778.4,35.743,629,confidential,confidential,Smallholder,None,arusha/arusha/bwawani,21.07,arusha/arushaurban/sokonii,12.52
arusha/meru/kikatiti,lon36.957.lat-3.368,Kikatiti,Meru,Arusha,36.95661672,-3.367740584,59.3,Mixed Ward,16755,282.5,22.694,1346,confidential,confidential,Agropastoral,Primary,arusha/arusha/bwawani,28.15,kilimanjaro/siha/biriri,19.77
arusha/meru/kikwe,lon36.868.lat-3.467,Kikwe,Meru,Arusha,36.86813907,-3.467349119,77.1,Rural Ward,10795,140,29.365,2264,confidential,confidential,Agropastoral,None,arusha/arusha/bwawani,13.38,arusha/meru/mbuguni,10.47
arusha/meru/kingori,lon37.007.lat-3.330,King'ori,Meru,Arusha,37.00738672,-3.330287498,172.1,Mixed Ward,23280,135.3,110.051,18940,confidential,confidential,Agropastoral,None,kilimanjaro/hai/machamekusini,27.61,arusha/meru/kikatiti,7.01
arusha/meru/leguruki,lon36.940.lat-3.237,Leguruki,Meru,Arusha,36.93996619,-3.237443264,78,Rural Ward,17636,226.1,80.643,6290,confidential,confidential,Smallholder,None,kilimanjaro/hai/machamekusini,37.34,kilimanjaro/siha/biriri,11.91
arusha/meru/majiyachai,lon36.902.lat-3.346,Maji ya chai,Meru,Arusha,36.90217363,-3.345504221,84.9,Mixed Ward,29313,345.3,33.465,2841,confidential,confidential,Agropastoral,None,arusha/arusha/bwawani,26.99,arusha/meru/kikatiti,6.53
arusha/meru/makiba,lon36.993.lat-3.490,Makiba,Meru,Arusha,36.99277636,-3.489648843,115,Mixed Ward,11874,103.3,16.601,1909,confidential,confidential,Agropastoral,None,arusha/arusha/bwawani,23.3,arusha/meru/mbuguni,12.56
arusha/meru/maroroni,lon36.932.lat-3.436,Maroroni,Meru,Arusha,36.93164718,-3.43562976,117.2,Rural Ward,14103,120.3,24.251,2842,confidential,confidential,Agropastoral,None,arusha/arusha/bwawani,20.71,arusha/meru/kikatiti,8.04
arusha/meru/mbuguni,lon36.901.lat-3.556,Mbuguni,Meru,Arusha,36.90086555,-3.555626021,59.3,Mixed Ward,16130,272,12.696,753,confidential,confidential,Agropastoral,Primary,arusha/arusha/bwawani,11.61,arusha/meru/kikatiti,21.79
arusha/meru/ngarenanyuki,lon36.835.lat-3.173,Ngarenanyuki,Meru,Arusha,36.83535818,-3.173109258,270.6,Rural Ward,20379,75.3,12.213,3305,confidential,confidential,Agropastoral,Primary,arusha/arusha/bwawani,43.7,arusha/arusha/oldonyosambu,11.91
arusha/meru/nkoanrua,lon36.761.lat-3.354,Nkoanrua,Meru,Arusha,36.76090387,-3.353518882,10.8,Rural Ward,18520,1714.8,22.856,247,confidential,confidential,Smallholder,None,arusha/arusha/bwawani,23.76,arusha/arushaurban/sokonii,11.25
arusha/meru/nkoaranga,lon36.844.lat-3.331,Nkoaranga,Meru,Arusha,36.84447833,-3.331485848,29.4,Mixed Ward,13929,473.8,13.591,400,confidential,confidential,Smallholder,None,arusha/arusha/bwawani,26.42,arusha/meru/kikatiti,13.08
arusha/meru/nkoarisambu,lon36.777.lat-3.333,Nkoarisambu,Meru,Arusha,36.77731654,-3.333243581,8.5,Rural Ward,7359,865.8,9.969,85,confidential,confidential,Urban,None,arusha/arusha/bwawani,25.77,arusha/arusha/olmotonyi,13.89
arusha/meru/poli,lon36.817.lat-3.361,Poli,Meru,Arusha,36.81736089,-3.360542599,13.5,Mixed Ward,9507,704.2,31.523,426,confidential,confidential,Smallholder,None,arusha/arusha/bwawani,22.76,arusha/meru/kikatiti,15.48
arusha/meru/seelasingisi,lon36.799.lat-3.353,Seela Sing'isi,Meru,Arusha,36.79873324,-3.353131867,11.6,Rural Ward,10109,871.5,25.745,299,confidential,confidential,Smallholder,None,arusha/arusha/bwawani,23.47,arusha/arushaurban/sokonii,14.86
arusha/meru/songoro,lon36.826.lat-3.279,Songoro,Meru,Arusha,36.82592807,-3.279274087,114.1,Rural Ward,11319,99.2,6.716,766,confidential,confidential,Smallholder,None,arusha/arusha/bwawani,31.85,arusha/meru/ngarenanyuki,11.85
arusha/meru/usariver,lon36.852.lat-3.390,Usariver,Meru,Arusha,36.85231622,-3.390418968,27.7,Mixed Ward,23437,846.1,21.236,588,confidential,confidential,Agropastoral,None,arusha/arusha/bwawani,20.29,arusha/meru/kikatiti,11.85
arusha/monduli/engaruka,lon36.040.lat-2.959,Engaruka,Monduli,Arusha,36.03983497,-2.95891452,658.1,Rural Ward,11121,16.9,12.634,8314,confidential,confidential,Pastoral,Primary,arusha/monduli/meserani,78.53,arusha/monduli/selela,31.28
arusha/monduli/engutoto,lon36.453.lat-3.302,Engutoto,Monduli,Arusha,36.45312501,-3.301767688,31.7,Mixed Ward,6970,219.9,17.193,545,confidential,confidential,Smallholder,None,arusha/monduli/meserani,32.1,arusha/monduli/mondulijuu,18
arusha/monduli/esilalei,lon35.935.lat-3.482,Esilalei,Monduli,Arusha,35.93539725,-3.482277318,497,Rural Ward,14595,29.4,13.765,6841,confidential,confidential,Pastoral,None,arusha/monduli/meserani,50.14,arusha/monduli/mtowambu,12.85
arusha/monduli/lepurko,lon36.210.lat-3.370,Lepurko,Monduli,Arusha,36.21020637,-3.370209562,247.2,Rural Ward,8151,33,12.336,3049,confidential,confidential,Agropastoral,Primary,arusha/monduli/meserani,29.74,arusha/monduli/makuyuni,17.49
arusha/monduli/lolkisale,lon36.295.lat-3.797,Lolkisale,Monduli,Arusha,36.29529769,-3.796692244,1123.4,Rural Ward,10056,9,25.226,28338,confidential,confidential,Agropastoral,Primary,arusha/monduli/meserani,25.71,manyara/simanjiro/terrat,33.05
arusha/monduli/majengo,lon35.849.lat-3.342,Majengo,Monduli,Arusha,35.84879283,-3.342251112,26.7,Rural Ward,7853,294.1,19.642,524,confidential,confidential,Agropastoral,None,arusha/monduli/meserani,64.25,arusha/monduli/mtowambu,6
arusha/monduli/makuyuni,lon36.133.lat-3.507,Makuyuni,Monduli,Arusha,36.13268931,-3.507105691,408.3,Rural Ward,11228,27.5,17.134,6996,confidential,confidential,Pastoral,Primary,arusha/monduli/meserani,28.24,arusha/monduli/lepurko,17.49
arusha/monduli/meserani,lon36.376.lat-3.580,Meserani,Monduli,Arusha,36.37638636,-3.580057691,651.8,Rural Ward,11301,17.3,16.733,10907,confidential,confidential,Agropastoral,Secondary,arusha/arusha/bwawani,46.67,arusha/monduli/lolkisale,25.71
arusha/monduli/moita,lon36.567.lat-3.551,Moita,Monduli,Arusha,36.56718234,-3.551122353,258.5,Rural Ward,11340,43.9,12.911,3338,confidential,confidential,Agropastoral,None,arusha/monduli/meserani,21.42,arusha/arusha/oljoro,10.54
arusha/monduli/mondulijuu,lon36.430.lat-3.142,Monduli juu,Monduli,Arusha,36.43045837,-3.141505185,972.9,Rural Ward,15914,16.4,16.688,16236,confidential,confidential,Pastoral,Primary,arusha/monduli/meserani,49.13,arusha/arusha/olmotonyi,30.82
arusha/monduli/mondulimjini,lon36.445.lat-3.299,Monduli Mjini,Monduli,Arusha,36.4446282,-3.298816058,2.5,Urban Ward,7796,3118.4,17.742,44,confidential,confidential,Smallholder,None,arusha/monduli/meserani,32.18,arusha/monduli/mondulijuu,17.56
arusha/monduli/mswakini,lon36.066.lat-3.665,Mswakini,Monduli,Arusha,36.06562393,-3.665383195,319.8,Rural Ward,5776,18.1,16.834,5384,confidential,confidential,Agropastoral,None,arusha/monduli/meserani,35.77,manyara/babati/nkaiti,18.67
arusha/monduli/mtowambu,lon35.859.lat-3.395,Mto wa Mbu,Monduli,Arusha,35.85932278,-3.395144107,24.8,Mixed Ward,11405,459.9,16.596,412,confidential,confidential,Agropastoral,Primary,arusha/monduli/meserani,60.96,arusha/karatu/karatu,18.63
arusha/monduli/selela,lon36.085.lat-3.237,Selela,Monduli,Arusha,36.08541295,-3.236556829,1183.2,Rural Ward,8703,7.4,15.977,18903,confidential,confidential,Pastoral,Primary,arusha/monduli/meserani,50.02,arusha/monduli/lepurko,20.32
arusha/monduli/sepeko,lon36.356.lat-3.406,Sepeko,Monduli,Arusha,36.35599724,-3.406263877,586.1,Rural Ward,16720,28.5,10.757,6305,confidential,confidential,Pastoral,None,arusha/monduli/meserani,19.46,arusha/monduli/lepurko,16.67
arusha/ngorongoro/alailelai,lon35.687.lat-2.893,Alailelai,Ngorongoro,Arusha,35.68744052,-2.893243742,366.9,Rural Ward,7351,20,7.818,2868,confidential,confidential,Pastoral,None,arusha/monduli/meserani,108.08,arusha/ngorongoro/olbalbal,32.33
arusha/ngorongoro/arash,lon35.385.lat-2.428,Arash,Ngorongoro,Arusha,35.38526196,-2.427873977,1103.7,Rural Ward,7841,7.1,37.265,41129,confidential,confidential,Agropastoral,Primary,arusha/monduli/meserani,168.9,arusha/ngorongoro/oloirien,39.42
arusha/ngorongoro/digodigo,lon35.789.lat-2.115,Digodigo,Ngorongoro,Arusha,35.78894186,-2.114668907,276.5,Rural Ward,8195,29.6,24.25,6705,confidential,confidential,Pastoral,None,arusha/monduli/meserani,175.52,arusha/ngorongoro/oldonyosambu,11.67
arusha/ngorongoro/endulen,lon35.128.lat-3.128,Endulen,Ngorongoro,Arusha,35.12823369,-3.127959766,1759.7,Rural Ward,13537,7.7,22.071,38838,confidential,confidential,Agropastoral,Primary,arusha/monduli/meserani,147.39,arusha/ngorongoro/olbalbal,36.84
arusha/ngorongoro/enguserosambu,lon35.682.lat-2.036,Engusero Sambu,Ngorongoro,Arusha,35.68163481,-2.036451305,67.9,Rural Ward,1521,22.4,13.118,891,confidential,confidential,Agropastoral,None,arusha/monduli/meserani,188.19,arusha/ngorongoro/oloirien,16.7
arusha/ngorongoro/kakesio,lon34.998.lat-3.392,Kakesio,Ngorongoro,Arusha,34.99845864,-3.391970532,1127.4,Rural Ward,5537,4.9,36.425,41065,confidential,confidential,Agropastoral,None,arusha/monduli/meserani,154.36,arusha/ngorongoro/endulen,32.7
arusha/ngorongoro/maalon,lon35.471.lat-2.252,Maalon,Ngorongoro,Arusha,35.47116202,-2.251907279,644.7,Rural Ward,4353,6.8,25.578,16490,confidential,confidential,Pastoral,None,arusha/monduli/meserani,178.65,arusha/ngorongoro/oloirien,17.69
arusha/ngorongoro/malambo,lon35.518.lat-2.646,Malambo,Ngorongoro,Arusha,35.51778526,-2.646079786,2389.4,Rural Ward,14226,6,19.805,47321,confidential,confidential,Pastoral,None,arusha/monduli/meserani,140.97,arusha/ngorongoro/arash,28.38
arusha/ngorongoro/nainokanoka,lon35.770.lat-3.091,Nainokanoka,Ngorongoro,Arusha,35.77004472,-3.090659733,1034.9,Rural Ward,12971,12.5,7.157,7406,confidential,confidential,Agropastoral,None,arusha/monduli/meserani,86.55,arusha/karatu/mbulumbulu,17.35
arusha/ngorongoro/naiyobi,lon35.861.lat-2.889,Naiyobi,Ngorongoro,Arusha,35.86054995,-2.888577915,194.3,Rural Ward,9133,47,8.264,1606,confidential,confidential,Agropastoral,None,arusha/monduli/meserani,95.87,arusha/monduli/engaruka,21.39
arusha/ngorongoro/ngorongoro,lon35.470.lat-3.211,Ngorongoro,Ngorongoro,Arusha,35.47017401,-3.210792505,1076.5,Mixed Ward,12586,11.7,7.156,7703,confidential,confidential,Agropastoral,None,arusha/monduli/meserani,108.65,arusha/karatu/daa,22.12
arusha/ngorongoro/olbalbal,lon35.400.lat-2.937,Olbalbal,Ngorongoro,Arusha,35.39974759,-2.937493896,1139.9,Rural Ward,8969,7.9,25.202,28727,confidential,confidential,Pastoral,Primary,arusha/monduli/meserani,129.85,arusha/ngorongoro/endulen,36.84
arusha/ngorongoro/oldonyosambu,lon35.890.lat-2.142,Oldonyo Sambu,Ngorongoro,Arusha,35.89041366,-2.141816304,177.9,Rural Ward,5233,29.4,15.897,2828,confidential,confidential,Pastoral,Primary,arusha/monduli/meserani,168.79,arusha/ngorongoro/oloirien,37.46
arusha/ngorongoro/oloipiri,lon35.406.lat-2.072,Oloipiri,Ngorongoro,Arusha,35.40563674,-2.072282916,623.2,Rural Ward,4114,6.6,25.817,16089,confidential,confidential,Pastoral,Primary,arusha/monduli/meserani,199.33,arusha/ngorongoro/oloirien,17.22
arusha/ngorongoro/oloirien,lon35.554.lat-2.116,Oloirien,Ngorongoro,Arusha,35.55427744,-2.116178384,262.7,Rural Ward,9485,36.1,20.72,5443,confidential,confidential,Pastoral,Primary,arusha/monduli/meserani,186.63,arusha/ngorongoro/oloipiri,17.22
arusha/ngorongoro/ololosokwan,lon35.315.lat-1.825,Ololosokwan,Ngorongoro,Arusha,35.31486617,-1.825005819,404.2,Rural Ward,6557,16.2,22.665,9161,confidential,confidential,Agropastoral,None,arusha/monduli/meserani,228,arusha/ngorongoro/oloipiri,29.29
arusha/ngorongoro/orgosorok,lon35.675.lat-1.990,Orgosorok,Ngorongoro,Arusha,35.67512305,-1.990379339,325.9,Mixed Ward,12268,37.6,18.251,5948,confidential,confidential,Pastoral,None,arusha/monduli/meserani,193.16,arusha/ngorongoro/oloirien,19.39
arusha/ngorongoro/pinyinyi,lon35.915.lat-2.426,Pinyinyi,Ngorongoro,Arusha,35.91514351,-2.426436874,2124,Rural Ward,8482,4,8.384,17807,confidential,confidential,Pastoral,None,arusha/monduli/meserani,138.12,arusha/ngorongoro/oldonyosambu,31.77
arusha/ngorongoro/sale,lon35.705.lat-2.290,Sale,Ngorongoro,Arusha,35.70489097,-2.29042517,119.6,Rural Ward,4384,36.7,14.025,1677,confidential,confidential,Pastoral,None,arusha/monduli/meserani,161.63,arusha/ngorongoro/oloirien,25.6
arusha/ngorongoro/samunge,lon35.683.lat-2.165,Samunge,Ngorongoro,Arusha,35.68252393,-2.165242896,147.4,Rural Ward,6579,44.6,21.651,3191,confidential,confidential,Pastoral,None,arusha/monduli/meserani,175.18,arusha/ngorongoro/oloirien,15.26
arusha/ngorongoro/soitsambu,lon35.387.lat-1.940,Soitsambu,Ngorongoro,Arusha,35.38701563,-1.939967508,588.6,Rural Ward,10956,18.6,24.733,14558,confidential,confidential,Agropastoral,None,arusha/monduli/meserani,212.91,arusha/ngorongoro/oloipiri,14.86
kilimanjaro/hai/haimjini,lon37.151.lat-3.364,Hai Mjini,Hai,Kilimanjaro,37.1510502,-3.363786297,54.1,Urban Ward,34098,630.3,42.521,2300,confidential,confidential,Smallholder,None,kilimanjaro/hai/machamekusini,11.56,kilimanjaro/siha/biriri,20.52
kilimanjaro/hai/kia,lon37.104.lat-3.424,KIA,Hai,Kilimanjaro,37.10427587,-3.424218202,140.5,Mixed Ward,10472,74.5,19.723,2771,confidential,confidential,Agropastoral,None,kilimanjaro/hai/machamekusini,18.38,arusha/meru/kikatiti,17.55
kilimanjaro/hai/machamekaskazini,lon37.238.lat-3.203,Machame Kaskazini,Hai,Kilimanjaro,37.23799637,-3.202839966,58,Rural Ward,23334,402.3,50.95,2955,confidential,confidential,Smallholder,None,kilimanjaro/hai/machamekusini,17.08,kilimanjaro/moshi/kiboshomagharibi,4.58
kilimanjaro/hai/machamekusini,lon37.255.lat-3.356,Machame Kusini,Hai,Kilimanjaro,37.25484965,-3.355515831,80.5,Rural Ward,13572,168.6,41.962,3378,confidential,confidential,Agropastoral,Secondary,arusha/arusha/bwawani,55.9,kilimanjaro/moshi/kiboshomagharibi,16.05
kilimanjaro/hai/machamemagharibi,lon37.234.lat-3.095,Machame Magharibi,Hai,Kilimanjaro,37.23433342,-3.094633012,99,Rural Ward,6503,65.7,37.507,3713,confidential,confidential,Smallholder,None,kilimanjaro/hai/machamekusini,29.1,kilimanjaro/moshi/kiboshomagharibi,14.03
kilimanjaro/hai/machamemashariki,lon37.272.lat-3.145,Machame Mashariki,Hai,Kilimanjaro,37.27179955,-3.144502914,85.1,Rural Ward,13084,153.7,49.832,4241,confidential,confidential,Smallholder,None,kilimanjaro/hai/machamekusini,23.54,kilimanjaro/moshi/kiboshomagharibi,7.65
kilimanjaro/hai/machamenarumu,lon37.245.lat-3.267,Machame Narumu,Hai,Kilimanjaro,37.24481775,-3.267469655,11.4,Rural Ward,12077,1059.4,48.202,550,confidential,confidential,Urban,None,kilimanjaro/hai/machamekusini,9.85,kilimanjaro/moshi/kiboshomagharibi,7.08
kilimanjaro/hai/machameuroki,lon37.209.lat-3.237,Machame Uroki,Hai,Kilimanjaro,37.20856855,-3.237078641,13.2,Rural Ward,10762,815.3,104.769,1383,confidential,confidential,Smallholder,None,kilimanjaro/hai/machamekusini,14.14,kilimanjaro/moshi/kiboshomagharibi,8.15
kilimanjaro/hai/machameweruweru,lon37.273.lat-3.415,Machame Weruweru,Hai,Kilimanjaro,37.27290039,-3.41494701,45,Rural Ward,12402,275.6,47.619,2143,confidential,confidential,Agropastoral,None,kilimanjaro/hai/machamekusini,6.91,kilimanjaro/moshi/kiboshomagharibi,22.46
kilimanjaro/hai/masamakati,lon37.167.lat-3.212,Masama Kati,Hai,Kilimanjaro,37.16662258,-3.212463929,23.6,Rural Ward,11562,489.9,1.251,30,confidential,confidential,Smallholder,None,kilimanjaro/hai/machamekusini,18.68,kilimanjaro/moshi/kiboshomagharibi,12.36
kilimanjaro/hai/masamakusini,lon37.160.lat-3.303,Masama Kusini,Hai,Kilimanjaro,37.16031968,-3.303010543,65.3,Mixed Ward,12060,184.7,115.981,7574,confidential,confidential,Agropastoral,None,kilimanjaro/hai/machamekusini,12.01,kilimanjaro/siha/biriri,16.3
kilimanjaro/hai/masamamagharibi,lon37.140.lat-3.218,Masama Magharibi,Hai,Kilimanjaro,37.140417,-3.218184119,37.8,Rural Ward,10851,287.1,180.67,6829,confidential,confidential,Agropastoral,None,kilimanjaro/hai/machamekusini,19.86,kilimanjaro/siha/biriri,10.67
kilimanjaro/hai/masamamashariki,lon37.196.lat-3.186,Masama Mashariki,Hai,Kilimanjaro,37.19612467,-3.186448827,82.7,Rural Ward,25723,311,200.295,16564,confidential,confidential,Smallholder,None,kilimanjaro/hai/machamekusini,19.9,kilimanjaro/moshi/kiboshomagharibi,9.55
kilimanjaro/hai/masamarundugai,lon37.223.lat-3.435,Masama Rundugai,Hai,Kilimanjaro,37.22346927,-3.435091001,106.8,Mixed Ward,14033,131.4,26.741,2856,confidential,confidential,Agropastoral,None,kilimanjaro/hai/machamekusini,9.51,kilimanjaro/moshi/kiboshomagharibi,25.42
kilimanjaro/moshi/arushachini,lon37.343.lat-3.534,Arusha Chini,Moshi,Kilimanjaro,37.34297781,-3.53367207,173,Rural Ward,13960,80.7,29.368,5081,confidential,confidential,Agropastoral,None,kilimanjaro/hai/machamekusini,22.09,manyara/simanjiro/msituwatembo,14.28
kilimanjaro/moshi/kahe,lon37.431.lat-3.515,Kahe,Moshi,Kilimanjaro,37.43100717,-3.514713999,191,Rural Ward,19142,100.2,82.622,15781,confidential,confidential,Agropastoral,None,kilimanjaro/hai/machamekusini,26.38,kilimanjaro/moshi/kilemakusini,18.56
kilimanjaro/moshi/kahemashariki,lon37.510.lat-3.475,Kahe Mashariki,Moshi,Kilimanjaro,37.50979349,-3.474637107,78,Rural Ward,11384,145.9,86.804,6771,confidential,confidential,Agropastoral,None,kilimanjaro/hai/machamekusini,31.24,kilimanjaro/moshi/kilemakusini,11.27
kilimanjaro/moshi/kiboshokati,lon37.320.lat-3.182,Kibosho Kati,Moshi,Kilimanjaro,37.31971302,-3.181500788,27.1,Rural Ward,10258,378.5,141.776,3842,confidential,confidential,Smallholder,None,kilimanjaro/hai/machamekusini,20.65,kilimanjaro/moshi/kiboshomagharibi,5.81
kilimanjaro/moshi/kiboshomagharibi,lon37.278.lat-3.213,Kibosho Magharibi,Moshi,Kilimanjaro,37.27795179,-3.213049866,37.3,Rural Ward,20291,544,56.554,2109,confidential,confidential,Smallholder,Primary,kilimanjaro/hai/machamekusini,16.05,kilimanjaro/siha/biriri,25.92
kilimanjaro/moshi/kiboshomashariki,lon37.342.lat-3.195,Kibosho Mashariki,Moshi,Kilimanjaro,37.34162874,-3.194835801,57.1,Rural Ward,14148,247.8,0,0,confidential,confidential,Smallholder,None,kilimanjaro/hai/machamekusini,20.3,kilimanjaro/moshi/kiboshomagharibi,7.35
kilimanjaro/moshi/kilemakaskazini,lon37.470.lat-3.263,Kilema Kaskazini,Moshi,Kilimanjaro,37.47042627,-3.262561961,10.3,Rural Ward,9669,938.7,10.314,106,confidential,confidential,Urban,None,kilimanjaro/hai/machamekusini,26.07,kilimanjaro/moshi/kilemakusini,13.58
kilimanjaro/moshi/kilemakati,lon37.492.lat-3.295,Kilema Kati,Moshi,Kilimanjaro,37.49170555,-3.294540463,5.8,Rural Ward,6993,1205.7,62.798,364,confidential,confidential,Smallholder,None,kilimanjaro/hai/machamekusini,27.15,kilimanjaro/moshi/kilemakusini,9.39
kilimanjaro/moshi/kilemakusini,lon37.521.lat-3.374,Kilema Kusini,Moshi,Kilimanjaro,37.52077769,-3.373866047,52.2,Rural Ward,22711,435.1,50.06,2613,confidential,confidential,Smallholder,Primary,kilimanjaro/hai/machamekusini,29.59,kilimanjaro/moshi/kiboshomagharibi,32.35
kilimanjaro/moshi/kimochi,lon37.418.lat-3.326,Kimochi,Moshi,Kilimanjaro,37.41800152,-3.326342428,30.8,Rural Ward,13562,440.3,109.793,3382,confidential,confidential,Smallholder,None,kilimanjaro/hai/machamekusini,18.4,kilimanjaro/moshi/kilemakusini,12.57
kilimanjaro/moshi/kindi,lon37.283.lat-3.299,Kindi,Moshi,Kilimanjaro,37.28338118,-3.298862635,31.4,Rural Ward,21391,681.2,46.629,1464,confidential,confidential,Smallholder,None,kilimanjaro/hai/machamekusini,7.05,kilimanjaro/moshi/kiboshomagharibi,9.56
kilimanjaro/moshi/kirima,lon37.303.lat-3.282,Kirima,Moshi,Kilimanjaro,37.30317636,-3.281758742,12.4,Rural Ward,10709,863.6,42.061,522,confidential,confidential,Smallholder,None,kilimanjaro/hai/machamekusini,9.8,kilimanjaro/moshi/kiboshomagharibi,8.14
kilimanjaro/moshi/kiruavunjokusini,lon37.457.lat-3.387,KiruaVunjo Kusini,Moshi,Kilimanjaro,37.45666882,-3.386640458,94,Rural Ward,19378,206.1,97.093,9127,confidential,confidential,Agropastoral,None,kilimanjaro/hai/machamekusini,22.67,kilimanjaro/moshi/kilemakusini,7.26
kilimanjaro/moshi/kiruavunjomagharibi,lon37.454.lat-3.293,KiruaVunjo Magharibi,Moshi,Kilimanjaro,37.45428929,-3.293482173,33.7,Rural Ward,12840,381,64.983,2190,confidential,confidential,Smallholder,None,kilimanjaro/hai/machamekusini,23.19,kilimanjaro/moshi/kilemakusini,11.59
kilimanjaro/moshi/kiruavunjomashariki,lon37.492.lat-3.346,KiruaVunjo Mashariki,Moshi,Kilimanjaro,37.4920521,-3.345784448,23.2,Rural Ward,8657,373.1,72.946,1692,confidential,confidential,Urban,None,kilimanjaro/hai/machamekusini,26.35,kilimanjaro/moshi/kilemakusini,4.46
kilimanjaro/moshi/mabogini,lon37.368.lat-3.449,Mabogini,Moshi,Kilimanjaro,37.36780763,-3.449263583,68.7,Rural Ward,28992,422,97.588,6704,confidential,confidential,Agropastoral,None,kilimanjaro/hai/machamekusini,16.31,kilimanjaro/moshi/kilemakusini,18.94
kilimanjaro/moshi/makuyuni,lon37.572.lat-3.402,Makuyuni,Moshi,Kilimanjaro,37.57163277,-3.402002472,51.2,Mixed Ward,22442,438.3,49.826,2551,confidential,confidential,Agropastoral,None,kilimanjaro/hai/machamekusini,35.54,kilimanjaro/moshi/kilemakusini,6.45
kilimanjaro/moshi/mambakaskazini,lon37.542.lat-3.262,Mamba Kaskazini,Moshi,Kilimanjaro,37.54215199,-3.262413388,9.9,Rural Ward,9065,915.7,52.692,522,confidential,confidential,Smallholder,None,kilimanjaro/hai/machamekusini,33.53,kilimanjaro/moshi/kilemakusini,12.62
kilimanjaro/moshi/mambakusini,lon37.545.lat-3.303,Mamba Kusini,Moshi,Kilimanjaro,37.54529562,-3.302640875,12.4,Rural Ward,10060,811.3,80.205,995,confidential,confidential,Smallholder,None,kilimanjaro/hai/machamekusini,32.77,kilimanjaro/moshi/kilemakusini,8.37
kilimanjaro/moshi/marangumagharibi,lon37.495.lat-3.258,Marangu Magharibi,Moshi,Kilimanjaro,37.49513403,-3.257832492,20.1,Rural Ward,18976,944.1,23.938,481,confidential,confidential,Smallholder,None,kilimanjaro/hai/machamekusini,28.8,kilimanjaro/moshi/kilemakusini,13.21
kilimanjaro/moshi/marangumashariki,lon37.526.lat-3.292,Marangu Mashariki,Moshi,Kilimanjaro,37.52553383,-3.292454918,26.6,Rural Ward,23734,892.3,83.966,2233,confidential,confidential,Smallholder,None,kilimanjaro/hai/machamekusini,30.86,kilimanjaro/moshi/kilemakusini,9.07
kilimanjaro/moshi/mbokomu,lon37.400.lat-3.280,Mbokomu,Moshi,Kilimanjaro,37.39987145,-3.28002732,26.2,Rural Ward,14606,557.5,16.513,433,confidential,confidential,Smallholder,None,kilimanjaro/hai/machamekusini,18.16,kilimanjaro/moshi/kiboshomagharibi,15.45
kilimanjaro/moshi/mwikakaskazini,lon37.573.lat-3.265,MwikaKaskazini,Moshi,Kilimanjaro,37.57326026,-3.264751825,18.1,Rural Ward,21177,1170,69.987,1267,confidential,confidential,Smallholder,None,kilimanjaro/hai/machamekusini,36.76,kilimanjaro/moshi/kilemakusini,13.46
kilimanjaro/moshi/mwikakusini,lon37.578.lat-3.330,Mwika Kusini,Moshi,Kilimanjaro,37.57804262,-3.330273153,55.8,Rural Ward,19645,352.1,66.522,3712,confidential,confidential,Smallholder,None,kilimanjaro/hai/machamekusini,35.99,kilimanjaro/moshi/kilemakusini,7.99
kilimanjaro/moshi/okaoni,lon37.303.lat-3.180,Okaoni,Moshi,Kilimanjaro,37.30279256,-3.180405432,36.5,Rural Ward,10446,286.2,0,0,confidential,confidential,Smallholder,None,kilimanjaro/hai/machamekusini,20.19,kilimanjaro/moshi/kiboshomagharibi,4.56
kilimanjaro/moshi/oldmoshimagharibi,lon37.390.lat-3.390,Old Moshi Magharibi,Moshi,Kilimanjaro,37.38977319,-3.389515657,33,Rural Ward,8100,245.5,50.687,1673,confidential,confidential,Smallholder,None,kilimanjaro/hai/machamekusini,15.45,kilimanjaro/moshi/kilemakusini,14.65
kilimanjaro/moshi/oldmoshimashariki,lon37.412.lat-3.294,Old Moshi Mashariki,Moshi,Kilimanjaro,37.41212258,-3.293752029,14.2,Rural Ward,9528,671,74.762,1062,confidential,confidential,Smallholder,None,kilimanjaro/hai/machamekusini,18.76,kilimanjaro/moshi/kilemakusini,14.99
kilimanjaro/moshi/urukaskazini,lon37.371.lat-3.214,Uru Kaskazini,Moshi,Kilimanjaro,37.37108018,-3.21419096,43.9,Rural Ward,11081,252.4,21.146,928,confidential,confidential,Smallholder,None,kilimanjaro/hai/machamekusini,20.33,kilimanjaro/moshi/kiboshomagharibi,10.34
kilimanjaro/moshi/urukusini,lon37.333.lat-3.287,Uru Kusini,Moshi,Kilimanjaro,37.33324738,-3.287132977,23.7,Rural Ward,22904,966.4,15.747,373,confidential,confidential,Smallholder,None,kilimanjaro/hai/machamekusini,11.56,kilimanjaro/moshi/kiboshomagharibi,10.27
kilimanjaro/moshi/urumashariki,lon37.388.lat-3.264,Uru Mashariki,Moshi,Kilimanjaro,37.38792468,-3.264250637,26.8,Rural Ward,14781,551.5,93.082,2495,confidential,confidential,Smallholder,None,kilimanjaro/hai/machamekusini,17.92,kilimanjaro/moshi/kiboshomagharibi,13.47
kilimanjaro/moshi/urushimbwe,lon37.389.lat-3.237,Uru Shimbwe,Moshi,Kilimanjaro,37.38912707,-3.236714066,21,Rural Ward,6107,290.8,50.439,1059,confidential,confidential,Smallholder,None,kilimanjaro/hai/machamekusini,19.92,kilimanjaro/moshi/kiboshomagharibi,12.62
kilimanjaro/moshimunicipal/bomambuzi,lon37.341.lat-3.375,Boma Mbuzi,Moshi Municipal,Kilimanjaro,37.34102391,-3.375091508,1.1,Urban Ward,15776,14341.8,49.125,54,confidential,confidential,Smallholder,None,kilimanjaro/hai/machamekusini,9.81,kilimanjaro/moshi/kiboshomagharibi,19.33
kilimanjaro/moshimunicipal/bondeni,lon37.338.lat-3.360,Bondeni,Moshi Municipal,Kilimanjaro,37.3384793,-3.360499987,0.5,Urban Ward,4050,8100,49.125,25,confidential,confidential,Smallholder,None,kilimanjaro/hai/machamekusini,9.3,kilimanjaro/moshi/kiboshomagharibi,17.72
kilimanjaro/moshimunicipal/kaloleni,lon37.351.lat-3.376,Kaloleni,Moshi Municipal,Kilimanjaro,37.35062785,-3.376006265,3,Urban Ward,6554,2184.7,73.704,221,confidential,confidential,Urban,None,kilimanjaro/hai/machamekusini,10.87,kilimanjaro/moshi/kilemakusini,18.89
kilimanjaro/moshimunicipal/karanga,lon37.306.lat-3.341,Karanga,Moshi Municipal,Kilimanjaro,37.30556647,-3.341412821,7.6,Urban Ward,7124,937.4,61.215,465,confidential,confidential,Smallholder,None,kilimanjaro/hai/machamekusini,5.84,kilimanjaro/moshi/kiboshomagharibi,14.6
kilimanjaro/moshimunicipal/kiboriloni,lon37.378.lat-3.336,Kiboriloni,Moshi Municipal,Kilimanjaro,37.3781467,-3.33554709,6,Urban Ward,9206,1534.3,50.687,304,confidential,confidential,Smallholder,None,kilimanjaro/hai/machamekusini,13.87,kilimanjaro/moshi/kilemakusini,16.4
kilimanjaro/moshimunicipal/kilimanjaro,lon37.328.lat-3.338,Kilimanjaro,Moshi Municipal,Kilimanjaro,37.32765007,-3.337829149,4.7,Urban Ward,5233,1113.4,112.003,526,confidential,confidential,Smallholder,None,kilimanjaro/hai/machamekusini,8.32,kilimanjaro/moshi/kiboshomagharibi,14.93
kilimanjaro/moshimunicipal/kiusa,lon37.334.lat-3.352,Kiusa,Moshi Municipal,Kilimanjaro,37.33379716,-3.351580148,1.1,Urban Ward,5950,5409.1,80.564,89,confidential,confidential,Urban,None,kilimanjaro/hai/machamekusini,8.77,kilimanjaro/moshi/kiboshomagharibi,16.6
kilimanjaro/moshimunicipal/korongoni,lon37.328.lat-3.366,Korongoni,Moshi Municipal,Kilimanjaro,37.32763242,-3.36579693,3.1,Urban Ward,5815,1875.8,49.125,152,confidential,confidential,Smallholder,None,kilimanjaro/hai/machamekusini,8.16,kilimanjaro/moshi/kiboshomagharibi,17.86
kilimanjaro/moshimunicipal/longuob,lon37.322.lat-3.319,Longuo B,Moshi Municipal,Kilimanjaro,37.32236936,-3.319360724,4.7,Urban Ward,6632,1411.1,112.003,526,confidential,confidential,Smallholder,None,kilimanjaro/hai/machamekusini,8.51,kilimanjaro/moshi/kiboshomagharibi,12.81
kilimanjaro/moshimunicipal/majengo,lon37.353.lat-3.343,Majengo,Moshi Municipal,Kilimanjaro,37.35272589,-3.34320617,0.9,Urban Ward,9006,10006.7,57.547,52,confidential,confidential,Urban,None,kilimanjaro/hai/machamekusini,10.95,kilimanjaro/moshi/kiboshomagharibi,16.68
kilimanjaro/moshimunicipal/mawenzi,lon37.342.lat-3.349,Mawenzi,Moshi Municipal,Kilimanjaro,37.34187413,-3.3488379,1,Urban Ward,1770,1770,80.564,81,confidential,confidential,Urban,None,kilimanjaro/hai/machamekusini,9.69,kilimanjaro/moshi/kiboshomagharibi,16.68
kilimanjaro/moshimunicipal/mfumuni,lon37.344.lat-3.335,Mfumuni,Moshi Municipal,Kilimanjaro,37.3443844,-3.335448028,2,Urban Ward,4750,2375,57.547,115,confidential,confidential,Smallholder,None,kilimanjaro/hai/machamekusini,10.19,kilimanjaro/moshi/kiboshomagharibi,15.48
kilimanjaro/moshimunicipal/miembeni,lon37.353.lat-3.356,Miembeni,Moshi Municipal,Kilimanjaro,37.35340613,-3.356101896,1.9,Urban Ward,15220,8010.5,65.625,125,confidential,confidential,Urban,None,kilimanjaro/hai/machamekusini,10.94,kilimanjaro/moshi/kiboshomagharibi,17.98
kilimanjaro/moshimunicipal/mjimpya,lon37.360.lat-3.351,Mji Mpya,Moshi Municipal,Kilimanjaro,37.36044692,-3.351347848,1.4,Urban Ward,15293,10923.6,50.687,71,confidential,confidential,Urban,None,kilimanjaro/hai/machamekusini,11.73,kilimanjaro/moshi/kiboshomagharibi,17.9
kilimanjaro/moshimunicipal/msaranga,lon37.370.lat-3.356,Msaranga,Moshi Municipal,Kilimanjaro,37.36965139,-3.355895631,6.5,Urban Ward,7699,1184.5,50.687,329,confidential,confidential,Smallholder,None,kilimanjaro/hai/machamekusini,12.74,kilimanjaro/moshi/kilemakusini,16.89
kilimanjaro/moshimunicipal/ngambo,lon37.382.lat-3.350,Ng'ambo,Moshi Municipal,Kilimanjaro,37.3824461,-3.349503672,3.8,Urban Ward,7890,2076.3,50.687,193,confidential,confidential,Smallholder,None,kilimanjaro/hai/machamekusini,14.18,kilimanjaro/moshi/kilemakusini,15.59
kilimanjaro/moshimunicipal/njoro,lon37.346.lat-3.359,Njoro,Moshi Municipal,Kilimanjaro,37.34564682,-3.358810049,2,Urban Ward,14296,7148,65.625,131,confidential,confidential,Smallholder,None,kilimanjaro/hai/machamekusini,10.09,kilimanjaro/moshi/kiboshomagharibi,17.87
kilimanjaro/moshimunicipal/pasua,lon37.334.lat-3.378,Pasua,Moshi Municipal,Kilimanjaro,37.33434605,-3.37846298,2.2,Urban Ward,13460,6118.2,49.125,108,confidential,confidential,Smallholder,None,kilimanjaro/hai/machamekusini,9.19,kilimanjaro/moshi/kiboshomagharibi,19.43
kilimanjaro/moshimunicipal/rau,lon37.344.lat-3.324,Rau,Moshi Municipal,Kilimanjaro,37.34381771,-3.323963168,3.8,Urban Ward,9137,2404.5,57.547,219,confidential,confidential,Smallholder,None,kilimanjaro/hai/machamekusini,10.48,kilimanjaro/moshi/kiboshomagharibi,14.34
kilimanjaro/moshimunicipal/shirimatunda,lon37.310.lat-3.367,Shirimatunda,Moshi Municipal,Kilimanjaro,37.31029452,-3.366707714,3.2,Urban Ward,4485,1401.6,69.645,223,confidential,confidential,Urban,None,kilimanjaro/hai/machamekusini,6.28,kilimanjaro/moshi/kiboshomagharibi,17.46
kilimanjaro/moshimunicipal/soweto,lon37.321.lat-3.356,Soweto,Moshi Municipal,Kilimanjaro,37.32106328,-3.3556577,2.9,Urban Ward,14946,5153.8,80.564,234,confidential,confidential,Urban,None,kilimanjaro/hai/machamekusini,7.35,kilimanjaro/moshi/kiboshomagharibi,16.56
kilimanjaro/mwanga/chomvu,lon37.665.lat-3.723,Chomvu,Mwanga,Kilimanjaro,37.66513625,-3.722963525,25.4,Rural Ward,7444,293.1,141.503,3594,confidential,confidential,Smallholder,None,kilimanjaro/hai/machamekusini,61.18,kilimanjaro/mwanga/mgagao,15.54
kilimanjaro/mwanga/jipe,lon37.722.lat-3.603,Jipe,Mwanga,Kilimanjaro,37.72176813,-3.603453025,103.5,Rural Ward,2564,24.8,25.209,2609,confidential,confidential,Pastoral,None,kilimanjaro/hai/machamekusini,58.7,kilimanjaro/mwanga/mgagao,29.37
kilimanjaro/mwanga/kifula,lon37.674.lat-3.636,Kifula,Mwanga,Kilimanjaro,37.67395622,-3.636191259,22.8,Rural Ward,8020,351.8,124.935,2849,confidential,confidential,Smallholder,None,kilimanjaro/hai/machamekusini,56.02,kilimanjaro/mwanga/mgagao,25.18
kilimanjaro/mwanga/kighare,lon37.658.lat-3.682,Kighare,Mwanga,Kilimanjaro,37.65827632,-3.682467638,12,Rural Ward,6254,521.2,122.156,1466,confidential,confidential,Urban,None,kilimanjaro/hai/machamekusini,57.68,kilimanjaro/mwanga/mgagao,20.08
kilimanjaro/mwanga/kigoningoni,lon37.743.lat-3.690,Kigoningoni,Mwanga,Kilimanjaro,37.74275492,-3.69044556,70.2,Rural Ward,2610,37.2,71.613,5027,confidential,confidential,Pastoral,None,kilimanjaro/hai/machamekusini,65.72,kilimanjaro/mwanga/mgagao,20.74
kilimanjaro/mwanga/kileo,lon37.560.lat-3.516,Kileo,Mwanga,Kilimanjaro,37.55965729,-3.516216278,117.4,Mixed Ward,13645,116.2,85.551,10044,confidential,confidential,Pastoral,None,kilimanjaro/hai/machamekusini,38.26,kilimanjaro/moshi/kilemakusini,16.41
kilimanjaro/mwanga/kilomeni,lon37.665.lat-3.770,Kilomeni,Mwanga,Kilimanjaro,37.66467127,-3.769661961,28.2,Rural Ward,4467,158.4,61.636,1738,confidential,confidential,Smallholder,None,kilimanjaro/hai/machamekusini,64.72,kilimanjaro/mwanga/mgagao,10.36
kilimanjaro/mwanga/kirongwe,lon37.686.lat-3.700,Kirongwe,Mwanga,Kilimanjaro,37.68559009,-3.699938894,14.1,Rural Ward,4771,338.4,107.182,1511,confidential,confidential,Smallholder,None,kilimanjaro/hai/machamekusini,61.25,kilimanjaro/mwanga/mgagao,18.17
kilimanjaro/mwanga/kirya,lon37.505.lat-3.841,Kirya,Mwanga,Kilimanjaro,37.50543323,-3.840996745,216.8,Mixed Ward,4917,22.7,34.509,7482,confidential,confidential,Pastoral,None,kilimanjaro/hai/machamekusini,60.72,kilimanjaro/mwanga/mgagao,18.51
kilimanjaro/mwanga/kivisini,lon37.630.lat-3.545,Kivisini,Mwanga,Kilimanjaro,37.62952688,-3.544755938,81.7,Rural Ward,1694,20.7,19.378,1583,confidential,confidential,Pastoral,None,kilimanjaro/hai/machamekusini,46.61,kilimanjaro/moshi/kilemakusini,22.51
kilimanjaro/mwanga/kwakoa,lon37.719.lat-3.780,Kwakoa,Mwanga,Kilimanjaro,37.71888346,-3.780169879,106,Rural Ward,3717,35.1,53.069,5625,confidential,confidential,Agropastoral,None,kilimanjaro/hai/machamekusini,69.87,kilimanjaro/mwanga/mgagao,10.61
kilimanjaro/mwanga/langata,lon37.466.lat-3.677,Lang'ata,Mwanga,Kilimanjaro,37.46598233,-3.676687603,165.9,Mixed Ward,8965,54,44.488,7381,confidential,confidential,Pastoral,None,kilimanjaro/hai/machamekusini,42.71,manyara/simanjiro/msituwatembo,18.63
kilimanjaro/mwanga/lembeni,lon37.581.lat-3.756,Lembeni,Mwanga,Kilimanjaro,37.58086452,-3.755603649,96.3,Mixed Ward,11780,122.3,58.481,5632,confidential,confidential,Agropastoral,None,kilimanjaro/hai/machamekusini,57.34,kilimanjaro/mwanga/mgagao,15.53
kilimanjaro/mwanga/mgagao,lon37.671.lat-3.863,Mgagao,Mwanga,Kilimanjaro,37.67082439,-3.86264463,354,Rural Ward,6011,17,50.337,17819,confidential,confidential,Agropastoral,Primary,kilimanjaro/hai/machamekusini,72.88,manyara/simanjiro/msituwatembo,47.24
kilimanjaro/mwanga/msangeni,lon37.625.lat-3.614,Msangeni,Mwanga,Kilimanjaro,37.62519041,-3.614204005,40.1,Rural Ward,6925,172.7,124.217,4981,confidential,confidential,Smallholder,None,kilimanjaro/hai/machamekusini,50.17,kilimanjaro/mwanga/mgagao,28.09
kilimanjaro/mwanga/mwanga,lon37.545.lat-3.645,Mwanga,Mwanga,Kilimanjaro,37.54532387,-3.644979814,158.2,Urban Ward,15783,99.8,57.647,9120,confidential,confidential,Agropastoral,None,kilimanjaro/hai/machamekusini,45.56,manyara/simanjiro/msituwatembo,27.29
kilimanjaro/mwanga/mwaniko,lon37.672.lat-3.585,Mwaniko,Mwanga,Kilimanjaro,37.67182467,-3.585227171,34.1,Rural Ward,7741,227,14.34,489,confidential,confidential,Smallholder,None,kilimanjaro/hai/machamekusini,52.86,kilimanjaro/moshi/kilemakusini,28.87
kilimanjaro/mwanga/ngujini,lon37.629.lat-3.733,Ngujini,Mwanga,Kilimanjaro,37.62886347,-3.732927653,21.5,Rural Ward,3314,154.1,142.175,3057,confidential,confidential,Smallholder,None,kilimanjaro/hai/machamekusini,59.03,kilimanjaro/mwanga/mgagao,15.16
kilimanjaro/mwanga/shighatini,lon37.624.lat-3.664,Shighatini,Mwanga,Kilimanjaro,37.62436408,-3.664337725,34,Rural Ward,7765,228.4,122.828,4176,confidential,confidential,Smallholder,None,kilimanjaro/hai/machamekusini,53.49,kilimanjaro/mwanga/mgagao,22.65
kilimanjaro/mwanga/toloha,lon37.847.lat-3.793,Toloha,Mwanga,Kilimanjaro,37.84731456,-3.793178643,264.5,Rural Ward,3055,11.6,34.872,9224,confidential,confidential,Pastoral,None,kilimanjaro/hai/machamekusini,81.8,kilimanjaro/mwanga/mgagao,21.05
kilimanjaro/rombo/aleni,lon37.596.lat-3.227,Aleni,Rombo,Kilimanjaro,37.5963866,-3.226615544,43,Rural Ward,9801,227.9,39.38,1693,confidential,confidential,Smallholder,None,kilimanjaro/hai/machamekusini,40.53,kilimanjaro/rombo/kitirimakingachi,17.01
kilimanjaro/rombo/holili,lon37.635.lat-3.358,Holili,Rombo,Kilimanjaro,37.63452519,-3.358466976,37.3,Mixed Ward,7299,195.7,47.326,1765,confidential,confidential,Smallholder,None,kilimanjaro/hai/machamekusini,42.15,kilimanjaro/moshi/kilemakusini,12.74
kilimanjaro/rombo/katangaramrere,lon37.509.lat-3.135,Katangara Mrere,Rombo,Kilimanjaro,37.50876851,-3.135214525,69.7,Rural Ward,11642,167,67.3,4691,confidential,confidential,Smallholder,None,kilimanjaro/hai/machamekusini,37.35,kilimanjaro/rombo/kitirimakingachi,13.17
kilimanjaro/rombo/kelamfuamokala,lon37.535.lat-3.197,Kelamfua Mokala,Rombo,Kilimanjaro,37.53458034,-3.196645411,50,Mixed Ward,13302,266,60.108,3005,confidential,confidential,Smallholder,None,kilimanjaro/hai/machamekusini,35.73,kilimanjaro/rombo/kitirimakingachi,16.01
kilimanjaro/rombo/kenimengeni,lon37.597.lat-3.241,Keni Mengeni,Rombo,Kilimanjaro,37.59662041,-3.241250211,38.3,Rural Ward,8719,227.7,49.873,1910,confidential,confidential,Smallholder,None,kilimanjaro/hai/machamekusini,40.01,kilimanjaro/moshi/kilemakusini,16.98
kilimanjaro/rombo/kirongosamanga,lon37.604.lat-3.099,Kirongo Samanga,Rombo,Kilimanjaro,37.60359466,-3.099166031,43.8,Rural Ward,14895,340.1,51.351,2249,confidential,confidential,Smallholder,None,kilimanjaro/hai/machamekusini,48.08,kilimanjaro/rombo/kitirimakingachi,2.87
kilimanjaro/rombo/kirwakeni,lon37.538.lat-3.157,Kirwa Keni,Rombo,Kilimanjaro,37.53766891,-3.157417502,45.8,Rural Ward,8362,182.6,0,0,confidential,confidential,Smallholder,None,kilimanjaro/hai/machamekusini,38.35,kilimanjaro/rombo/kitirimakingachi,12.28
kilimanjaro/rombo/kisalemsaranga,lon37.652.lat-3.143,Kisale Msaranga,Rombo,Kilimanjaro,37.65212169,-3.142927136,21.9,Rural Ward,10048,458.8,22.543,494,confidential,confidential,Smallholder,None,kilimanjaro/hai/machamekusini,50.04,kilimanjaro/rombo/kitirimakingachi,8.92
kilimanjaro/rombo/kitirimakingachi,lon37.611.lat-3.074,Kitirima Kingachi,Rombo,Kilimanjaro,37.61050707,-3.074256245,41.6,Rural Ward,18420,442.8,85.711,3566,confidential,confidential,Smallholder,Primary,kilimanjaro/hai/machamekusini,50.37,kilimanjaro/moshi/kilemakusini,34.77
kilimanjaro/rombo/mahida,lon37.615.lat-3.314,Mahida,Rombo,Kilimanjaro,37.61519418,-3.313731133,20.8,Mixed Ward,7980,383.7,58.877,1225,confidential,confidential,Smallholder,None,kilimanjaro/hai/machamekusini,40.27,kilimanjaro/moshi/kilemakusini,12.43
kilimanjaro/rombo/makiidi,lon37.550.lat-3.207,Makiidi,Rombo,Kilimanjaro,37.54988553,-3.207438469,20.5,Rural Ward,8720,425.4,72.577,1488,confidential,confidential,Smallholder,None,kilimanjaro/hai/machamekusini,36.66,kilimanjaro/rombo/kitirimakingachi,16.27
kilimanjaro/rombo/mamsera,lon37.650.lat-3.301,Mamsera,Rombo,Kilimanjaro,37.64976146,-3.301190094,45.2,Rural Ward,9935,219.8,54.95,2484,confidential,confidential,Smallholder,None,kilimanjaro/hai/machamekusini,44.25,kilimanjaro/moshi/kilemakusini,16.44
kilimanjaro/rombo/manda,lon37.609.lat-3.246,Manda,Rombo,Kilimanjaro,37.6094726,-3.246013066,4.7,Rural Ward,4040,859.6,64.668,304,confidential,confidential,Urban,None,kilimanjaro/hai/machamekusini,41.21,kilimanjaro/moshi/kilemakusini,17.29
kilimanjaro/rombo/marangukitowo,lon37.645.lat-3.120,Marangu Kitowo,Rombo,Kilimanjaro,37.64458427,-3.120283353,17.8,Rural Ward,7734,434.5,22.773,405,confidential,confidential,Smallholder,None,kilimanjaro/hai/machamekusini,50.56,kilimanjaro/rombo/kitirimakingachi,6.36
kilimanjaro/rombo/mengwe,lon37.617.lat-3.258,Mengwe,Rombo,Kilimanjaro,37.61696682,-3.257885572,4.1,Rural Ward,5277,1287.1,64.215,263,confidential,confidential,Smallholder,None,kilimanjaro/hai/machamekusini,41.64,kilimanjaro/moshi/kilemakusini,16.74
kilimanjaro/rombo/motamburukitendeni,lon37.357.lat-2.973,Motamburu Kitendeni,Rombo,Kilimanjaro,37.35729171,-2.972894607,477.4,Rural Ward,5603,11.7,65.542,31290,confidential,confidential,Smallholder,None,kilimanjaro/hai/machamekusini,44.04,kilimanjaro/moshi/kiboshomagharibi,28.12
kilimanjaro/rombo/mraokeryo,lon37.588.lat-3.165,Mrao Keryo,Rombo,Kilimanjaro,37.5877209,-3.165009663,19.6,Rural Ward,8199,418.3,88.215,1729,confidential,confidential,Smallholder,None,kilimanjaro/hai/machamekusini,42.59,kilimanjaro/rombo/kitirimakingachi,10.4
kilimanjaro/rombo/nanjarareha,lon37.491.lat-3.070,Nanjara Reha,Rombo,Kilimanjaro,37.49133582,-3.070123787,132.7,Rural Ward,26715,201.3,0,0,confidential,confidential,Smallholder,None,kilimanjaro/hai/machamekusini,41.19,kilimanjaro/rombo/kitirimakingachi,13.24
kilimanjaro/rombo/ngoyoni,lon37.668.lat-3.274,Ngoyoni,Rombo,Kilimanjaro,37.6684529,-3.27443674,33.4,Rural Ward,4038,120.9,46.175,1542,confidential,confidential,Smallholder,None,kilimanjaro/hai/machamekusini,46.79,kilimanjaro/moshi/kilemakusini,19.77
kilimanjaro/rombo/olele,lon37.553.lat-3.115,Olele,Rombo,Kilimanjaro,37.55343134,-3.115165643,17.2,Rural Ward,6723,390.9,61.861,1064,confidential,confidential,Smallholder,None,kilimanjaro/hai/machamekusini,42.58,kilimanjaro/rombo/kitirimakingachi,7.8
kilimanjaro/rombo/shimbi,lon37.603.lat-3.211,Shimbi,Rombo,Kilimanjaro,37.60277457,-3.211218109,36.2,Rural Ward,14591,403.1,51.397,1861,confidential,confidential,Smallholder,None,kilimanjaro/hai/machamekusini,41.82,kilimanjaro/rombo/kitirimakingachi,15.25
kilimanjaro/rombo/tarakeamotamburu,lon37.470.lat-3.031,Tarakea Motamburu,Rombo,Kilimanjaro,37.47033194,-3.030838015,128.1,Mixed Ward,20746,162,2.167,278,confidential,confidential,Smallholder,None,kilimanjaro/hai/machamekusini,43.31,kilimanjaro/rombo/kitirimakingachi,16.3
kilimanjaro/rombo/ubetukahe,lon37.551.lat-3.071,Ubetu Kahe,Rombo,Kilimanjaro,37.55142122,-3.070566256,50.7,Rural Ward,19295,380.6,0,0,confidential,confidential,Smallholder,None,kilimanjaro/hai/machamekusini,45.69,kilimanjaro/rombo/kitirimakingachi,6.57
kilimanjaro/rombo/ushiriikuini,lon37.514.lat-3.178,Ushiri Ikuini,Rombo,Kilimanjaro,37.51443326,-3.178418865,69.9,Rural Ward,8879,127,70.572,4933,confidential,confidential,Smallholder,None,kilimanjaro/hai/machamekusini,34.9,kilimanjaro/rombo/kitirimakingachi,15.75
kilimanjaro/same/bendera,lon38.078.lat-4.544,Bendera,Same,Kilimanjaro,38.07845319,-4.544252021,118.6,Mixed Ward,4913,41.4,20.304,2408,confidential,confidential,Pastoral,None,kilimanjaro/hai/machamekusini,160.68,kilimanjaro/same/hedaru,22.81
kilimanjaro/same/bombo,lon37.992.lat-4.268,Bombo,Same,Kilimanjaro,37.99152707,-4.267567349,21.9,Rural Ward,5530,252.5,121.955,2671,confidential,confidential,Smallholder,None,kilimanjaro/hai/machamekusini,130.25,kilimanjaro/same/makanya,26.43
kilimanjaro/same/bwambo,lon37.940.lat-4.377,Bwambo,Same,Kilimanjaro,37.94043712,-4.376505883,53.3,Rural Ward,9479,177.8,133.111,7095,confidential,confidential,Smallholder,None,kilimanjaro/hai/machamekusini,136.65,kilimanjaro/same/hedaru,13.66
kilimanjaro/same/chome,lon37.920.lat-4.270,Chome,Same,Kilimanjaro,37.91994912,-4.270302681,73.6,Rural Ward,5893,80.1,231.761,17058,confidential,confidential,Smallholder,None,kilimanjaro/hai/machamekusini,125.67,kilimanjaro/same/makanya,19.27
kilimanjaro/same/hedaru,lon37.882.lat-4.484,Hedaru,Same,Kilimanjaro,37.88161785,-4.484403095,166.8,Mixed Ward,18476,110.8,45.307,7557,confidential,confidential,Pastoral,Primary,kilimanjaro/hai/machamekusini,143.5,kilimanjaro/same/makanya,18
kilimanjaro/same/kalemawe,lon38.157.lat-4.377,Kalemawe,Same,Kilimanjaro,38.15651099,-4.377313124,347.1,Rural Ward,4248,12.2,38.158,13245,confidential,confidential,Pastoral,None,kilimanjaro/hai/machamekusini,151.38,kilimanjaro/same/hedaru,32.72
kilimanjaro/same/kihurio,lon38.060.lat-4.466,Kihurio,Same,Kilimanjaro,38.06035016,-4.466445675,36,Mixed Ward,10341,287.2,41.166,1482,confidential,confidential,Agropastoral,None,kilimanjaro/hai/machamekusini,152.46,kilimanjaro/same/hedaru,19.91
kilimanjaro/same/kirangare,lon37.962.lat-4.445,Kirangare,Same,Kilimanjaro,37.96215114,-4.444778055,31.3,Rural Ward,5528,176.6,55.665,1742,confidential,confidential,Smallholder,None,kilimanjaro/hai/machamekusini,144.32,kilimanjaro/same/hedaru,9.96
kilimanjaro/same/kisima,lon37.755.lat-4.087,Kisima,Same,Kilimanjaro,37.75516072,-4.087474171,20.2,Urban Ward,9885,489.4,49.001,990,confidential,confidential,Smallholder,None,kilimanjaro/hai/machamekusini,98.52,kilimanjaro/mwanga/mgagao,26.69
kilimanjaro/same/kisiwani,lon38.103.lat-4.046,Kisiwani,Same,Kilimanjaro,38.10308163,-4.046040194,1537.5,Rural Ward,7123,4.6,2.543,3910,confidential,confidential,Agropastoral,None,kilimanjaro/hai/machamekusini,121.47,kilimanjaro/same/makanya,50.82
kilimanjaro/same/lugulu,lon38.006.lat-4.338,Lugulu,Same,Kilimanjaro,38.00615472,-4.338387072,34.6,Rural Ward,6460,186.7,8.946,310,confidential,confidential,Agropastoral,None,kilimanjaro/hai/machamekusini,137.45,kilimanjaro/same/hedaru,21.31
kilimanjaro/same/mabilioni,lon37.800.lat-4.536,Mabilioni,Same,Kilimanjaro,37.80021036,-4.535573273,313.2,Rural Ward,6570,21,32.147,10069,confidential,confidential,Pastoral,None,kilimanjaro/hai/machamekusini,144.49,kilimanjaro/same/hedaru,10.67
kilimanjaro/same/makanya,lon37.774.lat-4.364,Makanya,Same,Kilimanjaro,37.77352343,-4.363655787,443.7,Rural Ward,13888,31.3,45.192,20052,confidential,confidential,Pastoral,Primary,kilimanjaro/hai/machamekusini,126.01,kilimanjaro/same/hedaru,18
kilimanjaro/same/maore,lon38.153.lat-4.250,Maore,Same,Kilimanjaro,38.15349065,-4.25038202,349.3,Mixed Ward,15722,45,7.921,2767,confidential,confidential,Agropastoral,None,kilimanjaro/hai/machamekusini,140.86,kilimanjaro/same/hedaru,39.82
kilimanjaro/same/mhezi,lon37.875.lat-4.146,Mhezi,Same,Kilimanjaro,37.87538826,-4.146327642,22.8,Rural Ward,4790,210.1,0,0,confidential,confidential,Smallholder,None,kilimanjaro/hai/machamekusini,111.68,kilimanjaro/same/makanya,26.68
kilimanjaro/same/mpinji,lon37.965.lat-4.357,Mpinji,Same,Kilimanjaro,37.96531447,-4.356624046,37.2,Rural Ward,8453,227.2,143.616,5343,confidential,confidential,Smallholder,None,kilimanjaro/hai/machamekusini,136.4,kilimanjaro/same/hedaru,16.97
kilimanjaro/same/mshewa,lon37.909.lat-4.151,Mshewa,Same,Kilimanjaro,37.90945441,-4.150806276,34.5,Rural Ward,6154,178.4,81.317,2805,confidential,confidential,Smallholder,None,kilimanjaro/hai/machamekusini,114.44,kilimanjaro/same/makanya,28.06
kilimanjaro/same/msindo,lon37.957.lat-4.202,Msindo,Same,Kilimanjaro,37.95667764,-4.201535905,59.4,Rural Ward,6495,109.3,124.324,7385,confidential,confidential,Smallholder,None,kilimanjaro/hai/machamekusini,122.12,kilimanjaro/same/makanya,27.16
kilimanjaro/same/mtii,lon38.005.lat-4.302,Mtii,Same,Kilimanjaro,38.00508666,-4.301772719,20.6,Rural Ward,5488,266.4,63.214,1302,confidential,confidential,Smallholder,None,kilimanjaro/hai/machamekusini,134.16,kilimanjaro/same/hedaru,24.49
kilimanjaro/same/mwembe,lon37.766.lat-4.207,Mwembe,Same,Kilimanjaro,37.76626728,-4.206644175,334.4,Mixed Ward,11913,35.6,46.432,15527,confidential,confidential,Agropastoral,None,kilimanjaro/hai/machamekusini,110.35,kilimanjaro/same/makanya,17.48
kilimanjaro/same/myamba,lon38.013.lat-4.400,Myamba,Same,Kilimanjaro,38.01307554,-4.400314618,54,Rural Ward,13168,243.9,25.435,1373,confidential,confidential,Smallholder,None,kilimanjaro/hai/machamekusini,143.43,kilimanjaro/same/hedaru,17.32
kilimanjaro/same/ndungu,lon38.057.lat-4.377,Ndungu,Same,Kilimanjaro,38.05707984,-4.376847148,38,Mixed Ward,13636,358.8,19.291,733,confidential,confidential,Smallholder,None,kilimanjaro/hai/machamekusini,144.29,kilimanjaro/same/hedaru,22.83
kilimanjaro/same/njoro,lon37.664.lat-3.972,Njoro,Same,Kilimanjaro,37.66422169,-3.972073296,80.5,Rural Ward,15410,191.4,47.949,3860,confidential,confidential,Agropastoral,None,kilimanjaro/hai/machamekusini,82.24,kilimanjaro/mwanga/mgagao,12.19
kilimanjaro/same/ruvu,lon37.578.lat-4.218,Ruvu,Same,Kilimanjaro,37.57788082,-4.217982446,1040.2,Rural Ward,14261,13.7,27.733,28848,confidential,confidential,Agropastoral,None,kilimanjaro/hai/machamekusini,102.38,kilimanjaro/same/makanya,27.07
kilimanjaro/same/same,lon37.699.lat-4.039,Same,Same,Kilimanjaro,37.69941369,-4.038572018,36.2,Urban Ward,9049,250,36.19,1310,confidential,confidential,Smallholder,None,kilimanjaro/hai/machamekusini,90.57,kilimanjaro/mwanga/mgagao,19.82
kilimanjaro/same/stesheni,lon37.684.lat-4.120,Stesheni,Same,Kilimanjaro,37.68442136,-4.120065942,178,Urban Ward,6860,38.5,41.628,7410,confidential,confidential,Agropastoral,None,kilimanjaro/hai/machamekusini,97.46,kilimanjaro/mwanga/mgagao,28.66
kilimanjaro/same/suji,lon37.899.lat-4.351,Suji,Same,Kilimanjaro,37.89884358,-4.350993303,59.5,Rural Ward,8776,147.5,28.138,1674,confidential,confidential,Smallholder,None,kilimanjaro/hai/machamekusini,131.75,kilimanjaro/same/makanya,13.97
kilimanjaro/same/vudee,lon37.879.lat-4.205,Vudee,Same,Kilimanjaro,37.878572,-4.205329981,42,Rural Ward,7120,169.5,133.793,5619,confidential,confidential,Smallholder,None,kilimanjaro/hai/machamekusini,117.13,kilimanjaro/same/makanya,21.11
kilimanjaro/same/vuje,lon37.996.lat-4.240,Vuje,Same,Kilimanjaro,37.99622404,-4.240458527,33.2,Rural Ward,10726,323.1,160.669,5334,confidential,confidential,Smallholder,None,kilimanjaro/hai/machamekusini,128.25,kilimanjaro/same/makanya,28.24
kilimanjaro/same/vumari,lon37.816.lat-3.993,Vumari,Same,Kilimanjaro,37.81565611,-3.992793244,469.3,Rural Ward,5908,12.6,17.226,8084,confidential,confidential,Agropastoral,None,kilimanjaro/hai/machamekusini,94.31,kilimanjaro/mwanga/mgagao,21.62
kilimanjaro/same/vunta,lon37.998.lat-4.518,Vunta,Same,Kilimanjaro,37.9979192,-4.518497835,130.6,Rural Ward,8659,66.3,29.717,3881,confidential,confidential,Agropastoral,None,kilimanjaro/hai/machamekusini,153.35,kilimanjaro/same/hedaru,13.44
kilimanjaro/siha/biriri,lon37.044.lat-3.213,Biriri,Siha,Kilimanjaro,37.04444435,-3.213042987,39,Rural Ward,7768,199.2,79.299,3093,confidential,confidential,Agropastoral,Primary,kilimanjaro/hai/machamekusini,28.22,arusha/meru/kikatiti,19.77
kilimanjaro/siha/gararagua,lon37.055.lat-3.124,Gararagua,Siha,Kilimanjaro,37.0548672,-3.124293075,123,Rural Ward,9884,80.4,12.038,1481,confidential,confidential,Pastoral,None,kilimanjaro/hai/machamekusini,33.97,kilimanjaro/siha/biriri,9.94
kilimanjaro/siha/ivaeny,lon37.123.lat-3.173,Ivaeny,Siha,Kilimanjaro,37.12268921,-3.172946295,26.3,Rural Ward,10748,408.7,47.676,1254,confidential,confidential,Smallholder,None,kilimanjaro/hai/machamekusini,25.05,kilimanjaro/siha/biriri,9.76
kilimanjaro/siha/karansi,lon36.943.lat-3.168,Karansi,Siha,Kilimanjaro,36.94331708,-3.167909333,58.6,Rural Ward,11394,194.4,12.808,751,confidential,confidential,Smallholder,None,kilimanjaro/hai/machamekusini,40.39,arusha/meru/ngarenanyuki,12
kilimanjaro/siha/kashisha,lon37.138.lat-3.172,Kashisha,Siha,Kilimanjaro,37.1381805,-3.172296136,28.3,Rural Ward,6694,236.5,1.038,29,confidential,confidential,Agropastoral,None,kilimanjaro/hai/machamekusini,24.14,kilimanjaro/siha/biriri,11.35
kilimanjaro/siha/livishi,lon37.125.lat-3.129,Livishi,Siha,Kilimanjaro,37.12457797,-3.128671496,55.8,Rural Ward,6140,110,0.974,54,confidential,confidential,Smallholder,None,kilimanjaro/hai/machamekusini,29.08,kilimanjaro/siha/biriri,12.93
kilimanjaro/siha/makiwaru,lon37.027.lat-3.239,Makiwaru,Siha,Kilimanjaro,37.02666841,-3.238504564,38,Rural Ward,10699,281.6,227.73,8654,confidential,confidential,Smallholder,None,kilimanjaro/hai/machamekusini,28.48,kilimanjaro/siha/biriri,3.45
kilimanjaro/siha/nasai,lon37.085.lat-3.186,Nasai,Siha,Kilimanjaro,37.08477881,-3.186305404,10.8,Rural Ward,8032,743.7,118.39,1279,confidential,confidential,Smallholder,None,kilimanjaro/hai/machamekusini,26.65,kilimanjaro/siha/biriri,5.38
kilimanjaro/siha/ndumeti,lon37.103.lat-2.974,Ndumeti,Siha,Kilimanjaro,37.10334643,-2.973800083,559.2,Rural Ward,11344,20.3,47.892,26781,confidential,confidential,Pastoral,None,kilimanjaro/hai/machamekusini,45.66,arusha/longido/tingatinga,26.41
kilimanjaro/siha/ngarenairobi,lon37.083.lat-3.063,Ngarenairobi,Siha,Kilimanjaro,37.08287804,-3.063070849,172.5,Mixed Ward,9431,54.7,2.369,409,confidential,confidential,Smallholder,None,kilimanjaro/hai/machamekusini,37.71,kilimanjaro/siha/biriri,17.21
kilimanjaro/siha/olkolili,lon37.086.lat-3.304,Olkolili,Siha,Kilimanjaro,37.08598407,-3.303807067,84.5,Rural Ward,12896,152.6,52.624,4447,confidential,confidential,Agropastoral,None,kilimanjaro/hai/machamekusini,19.61,kilimanjaro/siha/biriri,11.1
kilimanjaro/siha/sanyajuu,lon37.054.lat-3.185,Sanya Juu,Siha,Kilimanjaro,37.05389262,-3.184674014,21.1,Urban Ward,11283,534.7,112.966,2384,confidential,confidential,Smallholder,None,kilimanjaro/hai/machamekusini,29.3,kilimanjaro/siha/biriri,3.32
manyara/babati/arri,lon35.580.lat-4.199,Arri,Babati,Manyara,35.58042692,-4.198884798,109.9,Rural Ward,14146,128.7,1.404,154,confidential,confidential,Agropastoral,None,arusha/monduli/meserani,111.95,manyara/babati/dareda,7.31
manyara/babati/ayasanda,lon35.709.lat-4.360,Ayasanda,Babati,Manyara,35.70858083,-4.360135062,49,Rural Ward,6182,126.2,10.516,515,confidential,confidential,Agropastoral,None,arusha/monduli/meserani,114.07,manyara/babati/gidas,9.19
manyara/babati/bashneti,lon35.420.lat-4.242,Bashneti,Babati,Manyara,35.41994398,-4.241595023,69.5,Rural Ward,13367,192.3,11.188,778,confidential,confidential,Smallholder,Primary,arusha/monduli/meserani,129.11,manyara/babati/dabil,9.18
manyara/babati/boay,lon35.740.lat-4.409,Boay,Babati,Manyara,35.74039388,-4.409100079,84.4,Rural Ward,6565,77.8,15.829,1336,confidential,confidential,Agropastoral,None,arusha/monduli/meserani,116.08,manyara/babati/gidas,9.75
manyara/babati/dabil,lon35.433.lat-4.323,Dabil,Babati,Manyara,35.43255516,-4.323149151,161.7,Rural Ward,16781,103.8,10.453,1690,confidential,confidential,Agropastoral,Primary,arusha/monduli/meserani,133.38,manyara/babati/bashneti,9.18
manyara/babati/dareda,lon35.527.lat-4.237,Dareda,Babati,Manyara,35.52651075,-4.236664951,69.9,Mixed Ward,22880,327.3,1.309,92,confidential,confidential,Agropastoral,Primary,arusha/monduli/meserani,119.25,manyara/babati/bashneti,11.83
manyara/babati/duru,lon35.639.lat-4.335,Duru,Babati,Manyara,35.63907029,-4.334949503,103.9,Rural Ward,11526,110.9,10.335,1074,confidential,confidential,Agropastoral,None,arusha/monduli/meserani,117.2,manyara/babati/riroda,5.9
manyara/babati/endokise,lon36.057.lat-4.173,Endokise,Babati,Manyara,36.05749711,-4.17261195,347.5,Rural Ward,9246,26.6,3.222,1120,confidential,confidential,Agropastoral,None,arusha/monduli/meserani,74.79,manyara/babati/mamire,7.44
manyara/babati/galapo,lon36.087.lat-4.251,Galapo,Babati,Manyara,36.08653821,-4.251303984,552.2,Mixed Ward,19578,35.5,5.231,2889,confidential,confidential,Agropastoral,Primary,arusha/monduli/meserani,81.27,manyara/babati/mamire,16.75
manyara/babati/gidas,lon35.653.lat-4.422,Gidas,Babati,Manyara,35.65341848,-4.421803943,89.2,Rural Ward,7392,82.9,11.239,1002,confidential,confidential,Agropastoral,Primary,arusha/monduli/meserani,123.25,manyara/hanang/endasak,12.46
manyara/babati/kiru,lon35.634.lat-4.094,Kiru,Babati,Manyara,35.63437518,-4.093561713,175,Rural Ward,13119,75,13.103,2293,confidential,confidential,Agropastoral,Primary,arusha/monduli/meserani,100.19,manyara/babati/dareda,19.91
manyara/babati/madunga,lon35.495.lat-4.144,Madunga,Babati,Manyara,35.4951959,-4.143639244,188.5,Rural Ward,21094,111.9,14.308,2697,confidential,confidential,Agropastoral,None,arusha/monduli/meserani,116.12,manyara/babati/dareda,10.91
manyara/babati/magara,lon35.719.lat-3.736,Magara,Babati,Manyara,35.71945772,-3.735651464,208.5,Rural Ward,15336,73.6,9.696,2022,confidential,confidential,Agropastoral,Primary,arusha/monduli/meserani,74.92,manyara/mbulu/daudi,20.26
manyara/babati/magugu,lon35.912.lat-4.021,Magugu,Babati,Manyara,35.91185556,-4.020893113,756.7,Mixed Ward,32774,43.3,5.44,4117,confidential,confidential,Agropastoral,Primary,arusha/monduli/meserani,71.13,manyara/babati/mamire,17.09
manyara/babati/mamire,lon36.038.lat-4.108,Mamire,Babati,Manyara,36.03841472,-4.10849629,365.7,Rural Ward,9014,24.6,1.447,529,confidential,confidential,Agropastoral,Primary,arusha/monduli/meserani,69.7,manyara/babati/galapo,16.75
manyara/babati/mwada,lon35.938.lat-3.910,Mwada,Babati,Manyara,35.93756201,-3.909511782,750.2,Rural Ward,16139,21.5,4.404,3304,confidential,confidential,Agropastoral,None,arusha/monduli/meserani,60.93,manyara/babati/magugu,12.71
manyara/babati/nar,lon35.388.lat-4.189,Nar,Babati,Manyara,35.38810546,-4.189085663,66,Rural Ward,11186,169.5,12.335,814,confidential,confidential,Agropastoral,None,arusha/monduli/meserani,128.87,manyara/babati/bashneti,6.82
manyara/babati/nkaiti,lon35.929.lat-3.764,Nkaiti,Babati,Manyara,35.9291398,-3.763560021,573.1,Rural Ward,14150,24.7,4.612,2643,confidential,confidential,Agropastoral,Primary,arusha/monduli/meserani,53.66,manyara/babati/magara,23.47
manyara/babati/qashi,lon36.081.lat-4.345,Qashi,Babati,Manyara,36.08121628,-4.345236586,550.3,Rural Ward,19549,35.5,6.96,3830,confidential,confidential,Agropastoral,None,arusha/monduli/meserani,91.17,manyara/babati/galapo,10.46
manyara/babati/riroda,lon35.648.lat-4.283,Riroda,Babati,Manyara,35.64802379,-4.282612084,73.3,Rural Ward,12179,166.2,2.729,200,confidential,confidential,Agropastoral,Primary,arusha/monduli/meserani,112.39,manyara/babati/dareda,14.41
manyara/babati/ufana,lon35.306.lat-4.271,Ufana,Babati,Manyara,35.30570747,-4.270867105,236.7,Rural Ward,20189,85.3,16.903,4001,confidential,confidential,Agropastoral,None,arusha/monduli/meserani,141.45,manyara/babati/bashneti,13.08
manyara/babatiurban/babati,lon35.775.lat-4.203,Babati,Babati Urban,Manyara,35.77494191,-4.203047687,27.5,Urban Ward,16718,607.9,4.22,116,confidential,confidential,Urban,None,arusha/monduli/meserani,96.18,manyara/babatiurban/nangara,5.79
manyara/babatiurban/bagara,lon35.715.lat-4.241,Bagara,Babati Urban,Manyara,35.71486567,-4.241115104,47.6,Mixed Ward,28920,607.6,12.765,608,confidential,confidential,Smallholder,None,arusha/monduli/meserani,103.87,manyara/babati/riroda,8.73
manyara/babatiurban/bonga,lon35.751.lat-4.319,Bonga,Babati Urban,Manyara,35.75053535,-4.318948725,41.5,Mixed Ward,9603,231.4,16.607,689,confidential,confidential,Agropastoral,None,arusha/monduli/meserani,107.57,manyara/babatiurban/nangara,9.94
manyara/babatiurban/maisaka,lon35.740.lat-4.131,Maisaka,Babati Urban,Manyara,35.73958354,-4.131027646,103.9,Mixed Ward,8831,85,11.952,1242,confidential,confidential,Agropastoral,None,arusha/monduli/meserani,93.51,manyara/babati/kiru,12.39
manyara/babatiurban/mutuka,lon35.809.lat-4.160,Mutuka,Babati Urban,Manyara,35.80941396,-4.159731989,80.2,Rural Ward,4910,61.2,8.179,656,confidential,confidential,Agropastoral,None,arusha/monduli/meserani,90.06,manyara/babatiurban/nangara,9.7
manyara/babatiurban/nangara,lon35.803.lat-4.247,Nangara,Babati Urban,Manyara,35.8033328,-4.246741861,41.3,Mixed Ward,7468,180.8,16.649,688,confidential,confidential,Agropastoral,Primary,arusha/monduli/meserani,97.66,manyara/babati/riroda,17.68
manyara/babatiurban/sigino,lon35.670.lat-4.191,Sigino,Babati Urban,Manyara,35.66959024,-4.191103267,95.8,Rural Ward,10038,104.8,17.429,1670,confidential,confidential,Agropastoral,None,arusha/monduli/meserani,103.75,manyara/babati/riroda,10.45
manyara/babatiurban/singe,lon35.758.lat-4.266,Singe,Babati Urban,Manyara,35.7577645,-4.266379081,34.4,Mixed Ward,6620,192.4,15.71,540,confidential,confidential,Agropastoral,None,arusha/monduli/meserani,102.63,manyara/babatiurban/nangara,5.5
manyara/hanang/balagidalalu,lon35.307.lat-4.660,Balagidalalu,Hanang,Manyara,35.30687812,-4.659532053,316,Rural Ward,14478,45.8,14.858,4695,confidential,confidential,Agropastoral,None,arusha/monduli/meserani,168.75,manyara/hanang/katesh,16.29
manyara/hanang/bassodesh,lon35.137.lat-4.307,Bassodesh,Hanang,Manyara,35.13738611,-4.306697364,284.2,Rural Ward,16762,59,25.044,7118,confidential,confidential,Agropastoral,Primary,arusha/monduli/meserani,159.43,manyara/hanang/bassotu,9.57
manyara/hanang/bassotu,lon35.112.lat-4.389,Bassotu,Hanang,Manyara,35.11167263,-4.388814359,362.8,Mixed Ward,24527,67.6,20.727,7520,confidential,confidential,Agropastoral,Primary,arusha/monduli/meserani,166.64,manyara/hanang/bassodesh,9.57
manyara/hanang/dirma,lon35.458.lat-4.641,Dirma,Hanang,Manyara,35.45798428,-4.641208865,226.1,Rural Ward,8538,37.8,13.436,3038,confidential,confidential,Agropastoral,Primary,arusha/monduli/meserani,155.88,manyara/hanang/katesh,14.91
manyara/hanang/endasak,lon35.541.lat-4.419,Endasak,Hanang,Manyara,35.54102411,-4.418931417,36.5,Mixed Ward,10054,275.5,13.271,484,confidential,confidential,Smallholder,Primary,arusha/monduli/meserani,131.48,manyara/babati/gidas,12.46
manyara/hanang/endasiwold,lon35.495.lat-4.398,Endasiwold,Hanang,Manyara,35.49467244,-4.397802641,30.6,Rural Ward,6562,214.4,18.577,568,confidential,confidential,Smallholder,None,arusha/monduli/meserani,133.54,manyara/hanang/endasak,5.65
manyara/hanang/ganana,lon35.383.lat-4.511,Ganana,Hanang,Manyara,35.38336168,-4.511196612,6.1,Urban Ward,7543,1236.6,6.613,40,confidential,confidential,Urban,None,arusha/monduli/meserani,151.17,manyara/hanang/katesh,2.37
manyara/hanang/gehandu,lon35.173.lat-4.588,Gehandu,Hanang,Manyara,35.17311013,-4.587874659,257.8,Rural Ward,12092,46.9,18.756,4835,confidential,confidential,Agropastoral,Primary,arusha/monduli/meserani,174.27,manyara/hanang/laghanga,14.11
manyara/hanang/gendabi,lon35.311.lat-4.416,Gendabi,Hanang,Manyara,35.31093327,-4.416254528,119.4,Rural Ward,10968,91.9,4.91,586,confidential,confidential,Agropastoral,None,arusha/monduli/meserani,150.38,manyara/hanang/katesh,14.97
manyara/hanang/getanuwas,lon34.961.lat-4.393,Getanuwas,Hanang,Manyara,34.96067519,-4.392637967,107.4,Rural Ward,12152,113.1,34.141,3667,confidential,confidential,Agropastoral,None,arusha/monduli/meserani,181.18,manyara/hanang/hirbadaw,8.06
manyara/hanang/gidahababieg,lon35.583.lat-4.458,Gidahababieg,Hanang,Manyara,35.58277203,-4.45765302,64.3,Rural Ward,5366,83.5,13.484,867,confidential,confidential,Agropastoral,None,arusha/monduli/meserani,131.42,manyara/hanang/endasak,6.32
manyara/hanang/gisambalang,lon35.472.lat-4.761,Gisambalang,Hanang,Manyara,35.47172163,-4.761122115,269.7,Rural Ward,10937,40.6,17.818,4806,confidential,confidential,Agropastoral,None,arusha/monduli/meserani,165.26,manyara/hanang/dirma,13.42
manyara/hanang/giting,lon35.415.lat-4.402,Giting,Hanang,Manyara,35.4146393,-4.402379681,88,Rural Ward,13370,151.9,13.089,1152,confidential,confidential,Agropastoral,None,arusha/monduli/meserani,140.51,manyara/babati/dabil,9.03
manyara/hanang/hidet,lon35.518.lat-4.496,Hidet,Hanang,Manyara,35.51767862,-4.495600287,51.6,Rural Ward,6528,126.5,13.621,703,confidential,confidential,Agropastoral,None,arusha/monduli/meserani,139.41,manyara/hanang/simbay,8.86
manyara/hanang/hirbadaw,lon34.909.lat-4.342,Hirbadaw,Hanang,Manyara,34.90890358,-4.341789002,103.7,Rural Ward,7903,76.2,51.824,5374,confidential,confidential,Agropastoral,Primary,arusha/monduli/meserani,183.5,manyara/mbulu/haydom,21.15
manyara/hanang/katesh,lon35.380.lat-4.532,Katesh,Hanang,Manyara,35.37961434,-4.53221221,13.8,Urban Ward,8774,635.8,0,0,confidential,confidential,Agropastoral,Primary,arusha/monduli/meserani,153.08,manyara/hanang/dirma,14.91
manyara/hanang/laghanga,lon35.090.lat-4.492,Laghanga,Hanang,Manyara,35.0898502,-4.491860478,245,Rural Ward,11872,48.5,23.171,5677,confidential,confidential,Agropastoral,Primary,arusha/monduli/meserani,175.05,manyara/hanang/bassotu,11.71
manyara/hanang/lalaji,lon35.279.lat-4.766,Lalaji,Hanang,Manyara,35.27913785,-4.76594287,290.1,Rural Ward,9698,33.4,15.618,4531,confidential,confidential,Agropastoral,None,arusha/monduli/meserani,179.43,manyara/hanang/gehandu,23.02
manyara/hanang/masakta,lon35.537.lat-4.302,Masakta,Hanang,Manyara,35.53711511,-4.302294217,59.9,Rural Ward,7321,122.2,14.157,848,confidential,confidential,Smallholder,None,arusha/monduli/meserani,122.95,manyara/babati/dareda,7.39
manyara/hanang/maskron,lon35.479.lat-4.454,Maskron,Hanang,Manyara,35.47907246,-4.454282573,61.3,Rural Ward,13149,214.5,17.301,1061,confidential,confidential,Agropastoral,None,arusha/monduli/meserani,139.13,manyara/hanang/endasak,7.91
manyara/hanang/masqaroda,lon35.550.lat-4.361,Masqaroda,Hanang,Manyara,35.54969968,-4.360853298,69.1,Rural Ward,7254,105,12.156,840,confidential,confidential,Agropastoral,None,arusha/monduli/meserani,126.28,manyara/hanang/endasak,6.53
manyara/hanang/mogitu,lon35.329.lat-4.513,Mogitu,Hanang,Manyara,35.32870112,-4.512549459,266.8,Rural Ward,21547,80.8,9.522,2541,confidential,confidential,Agropastoral,None,arusha/monduli/meserani,155.74,manyara/hanang/katesh,6.05
manyara/hanang/nangwa,lon35.459.lat-4.525,Nangwa,Hanang,Manyara,35.45902565,-4.525439885,103.7,Mixed Ward,13165,127,11.543,1197,confidential,confidential,Agropastoral,None,arusha/monduli/meserani,146.3,manyara/hanang/katesh,8.83
manyara/hanang/simbay,lon35.579.lat-4.546,Simbay,Hanang,Manyara,35.57949522,-4.546102754,122.1,Rural Ward,6737,55.2,12.287,1500,confidential,confidential,Agropastoral,Primary,arusha/monduli/meserani,139.11,manyara/hanang/endasak,14.77
manyara/hanang/sirop,lon35.610.lat-4.605,Sirop,Hanang,Manyara,35.61038523,-4.605147595,130.8,Rural Ward,5563,42.5,12.123,1586,confidential,confidential,Agropastoral,None,arusha/monduli/meserani,142.16,manyara/hanang/simbay,7.4
manyara/kiteto/bwagamoyo,lon36.582.lat-5.301,Bwagamoyo,Kiteto,Manyara,36.58174845,-5.300549322,26.1,Mixed Ward,10748,411.8,24.911,650,confidential,confidential,Agropastoral,None,arusha/monduli/meserani,192.66,manyara/kiteto/partimbo,8.62
manyara/kiteto/chapakazi,lon36.404.lat-5.449,Chapakazi,Kiteto,Manyara,36.40363159,-5.449110805,277.5,Rural Ward,7773,28,32.13,8916,confidential,confidential,Agropastoral,None,arusha/monduli/meserani,207.85,manyara/kiteto/dosidosi,14.36
manyara/kiteto/dongo,lon36.808.lat-5.836,Dongo,Kiteto,Manyara,36.80768616,-5.836352802,724.6,Rural Ward,17980,24.8,19.166,13887,confidential,confidential,Agropastoral,Primary,arusha/arusha/bwawani,252.65,manyara/kiteto/sunya,20.66
manyara/kiteto/dosidosi,lon36.417.lat-5.578,Dosidosi,Kiteto,Manyara,36.41652248,-5.577614543,106.3,Rural Ward,7785,73.2,27.647,2939,confidential,confidential,Agropastoral,Primary,arusha/monduli/meserani,222.16,manyara/kiteto/namelock,34.31
manyara/kiteto/engusero,lon36.549.lat-5.566,Engusero,Kiteto,Manyara,36.54893812,-5.566181717,336,Rural Ward,24707,73.5,25.153,8451,confidential,confidential,Agropastoral,None,arusha/monduli/meserani,221.67,manyara/kiteto/dosidosi,14.71
manyara/kiteto/kibaya,lon36.563.lat-5.313,Kibaya,Kiteto,Manyara,36.56330287,-5.312927827,3.1,Urban Ward,8759,2825.5,23.684,73,confidential,confidential,Urban,None,arusha/monduli/meserani,193.8,manyara/kiteto/partimbo,10.18
manyara/kiteto/kijungu,lon37.045.lat-5.406,Kijungu,Kiteto,Manyara,37.04454277,-5.405786157,458.4,Rural Ward,6165,13.4,19.704,9033,confidential,confidential,Agropastoral,Primary,arusha/arusha/bwawani,206.61,manyara/kiteto/lengatei,16.31
manyara/kiteto/lengatei,lon37.045.lat-5.552,Lengatei,Kiteto,Manyara,37.04544855,-5.55244259,764.1,Rural Ward,12776,16.7,16.623,12702,confidential,confidential,Agropastoral,Primary,arusha/arusha/bwawani,222.8,manyara/kiteto/kijungu,16.31
manyara/kiteto/loolera,lon37.187.lat-5.262,Loolera,Kiteto,Manyara,37.18729951,-5.26202664,1446.4,Rural Ward,6098,4.2,16.417,23745,confidential,confidential,Agropastoral,None,arusha/arusha/bwawani,193.69,manyara/kiteto/kijungu,22.48
manyara/kiteto/magungu,lon36.618.lat-5.715,Magungu,Kiteto,Manyara,36.6177194,-5.71534594,145.7,Rural Ward,8732,59.9,23.051,3359,confidential,confidential,Agropastoral,None,arusha/monduli/meserani,238.93,manyara/kiteto/dongo,24.95
manyara/kiteto/makame,lon36.572.lat-4.712,Makame,Kiteto,Manyara,36.57168995,-4.711920489,2597.2,Rural Ward,9751,3.8,19.684,51123,confidential,confidential,Agropastoral,None,arusha/monduli/meserani,127.71,manyara/simanjiro/loiborsiret,39.47
manyara/kiteto/matui,lon36.345.lat-5.441,Matui,Kiteto,Manyara,36.34495798,-5.440567518,53.3,Mixed Ward,19883,373,31.535,1681,confidential,confidential,Agropastoral,None,arusha/monduli/meserani,206.91,manyara/kiteto/dosidosi,17.17
manyara/kiteto/namelock,lon36.706.lat-5.468,Namelock,Kiteto,Manyara,36.70635512,-5.468235799,650.6,Rural Ward,14743,22.7,23.99,15608,confidential,confidential,Agropastoral,Primary,arusha/arusha/bwawani,211.96,manyara/kiteto/partimbo,16.41
manyara/kiteto/ndedo,lon36.759.lat-4.989,Ndedo,Kiteto,Manyara,36.75920924,-4.988771379,2481.9,Rural Ward,5103,2.1,24.222,60117,confidential,confidential,Agropastoral,None,arusha/arusha/bwawani,158.46,manyara/kiteto/partimbo,39.74
manyara/kiteto/njoro,lon36.563.lat-5.209,Njoro,Kiteto,Manyara,36.56311402,-5.209053807,552.2,Rural Ward,5368,9.7,27.601,15242,confidential,confidential,Agropastoral,None,arusha/monduli/meserani,182.32,manyara/kiteto/partimbo,16.8
manyara/kiteto/olboroti,lon36.345.lat-5.204,Olboroti,Kiteto,Manyara,36.34524332,-5.203645423,357.4,Mixed Ward,16497,46.2,29.653,10598,confidential,confidential,Agropastoral,None,arusha/monduli/meserani,180.57,manyara/kiteto/partimbo,36.94
manyara/kiteto/partimbo,lon36.654.lat-5.330,Partimbo,Kiteto,Manyara,36.65361825,-5.330327752,956.7,Rural Ward,20669,21.6,25.585,24477,confidential,confidential,Agropastoral,Primary,arusha/arusha/bwawani,197.02,manyara/kiteto/namelock,16.41
manyara/kiteto/songambele,lon36.534.lat-5.662,Songambele,Kiteto,Manyara,36.53417746,-5.662084208,123.2,Rural Ward,7532,61.1,25.539,3146,confidential,confidential,Agropastoral,None,arusha/monduli/meserani,232.17,manyara/kiteto/dosidosi,16.05
manyara/kiteto/sunya,lon36.931.lat-5.697,Sunya,Kiteto,Manyara,36.93144328,-5.6972333,1079.7,Rural Ward,23558,21.8,16.864,18208,confidential,confidential,Agropastoral,Primary,arusha/arusha/bwawani,237.65,manyara/kiteto/lengatei,20.45
manyara/mbulu/ayamaami,lon35.549.lat-3.884,Ayamaami,Mbulu,Manyara,35.54899817,-3.883547667,14.6,Urban Ward,4848,332.1,10.934,160,confidential,confidential,Smallholder,None,arusha/monduli/meserani,97.81,manyara/mbulu/endagikot,3.66
manyara/mbulu/ayamohe,lon35.572.lat-3.846,Ayamohe,Mbulu,Manyara,35.57202511,-3.846159301,8.6,Urban Ward,5785,672.7,12.336,106,confidential,confidential,Smallholder,None,arusha/monduli/meserani,94.03,manyara/mbulu/endagikot,7.31
manyara/mbulu/bargish,lon35.545.lat-3.798,Bargish,Mbulu,Manyara,35.54460472,-3.797543014,37.1,Rural Ward,8804,237.3,12.367,459,confidential,confidential,Smallholder,None,arusha/monduli/meserani,95.41,manyara/mbulu/daudi,4.87
manyara/mbulu/bashay,lon35.284.lat-3.975,Bashay,Mbulu,Manyara,35.28400626,-3.975085896,126.1,Rural Ward,10194,80.8,19.672,2481,confidential,confidential,Agropastoral,Primary,arusha/monduli/meserani,128.92,manyara/mbulu/masqaroda,13.47
manyara/mbulu/daudi,lon35.538.lat-3.754,Daudi,Mbulu,Manyara,35.53783487,-3.754283498,46.2,Rural Ward,7642,165.4,7.573,350,confidential,confidential,Smallholder,Primary,arusha/monduli/meserani,95.05,manyara/mbulu/gunyoda,10.48
manyara/mbulu/dinamu,lon35.266.lat-4.051,Dinamu,Mbulu,Manyara,35.26596028,-4.051155916,90.6,Rural Ward,11606,128.1,20.571,1864,confidential,confidential,Agropastoral,None,arusha/monduli/meserani,133.87,manyara/mbulu/bashay,8.69
manyara/mbulu/dongobesh,lon35.369.lat-4.079,Dongobesh,Mbulu,Manyara,35.36912095,-4.079242264,65.2,Mixed Ward,11770,180.5,20.46,1334,confidential,confidential,Agropastoral,Primary,arusha/monduli/meserani,124.78,manyara/mbulu/bashay,14.94
manyara/mbulu/endagikot,lon35.516.lat-3.881,Endagikot,Mbulu,Manyara,35.51607817,-3.880860448,18.2,Urban Ward,4463,245.2,13.125,239,confidential,confidential,Urban,Primary,arusha/monduli/meserani,101.15,manyara/mbulu/gunyoda,9.6
manyara/mbulu/endamilay,lon35.135.lat-4.062,Endamilay,Mbulu,Manyara,35.13471738,-4.062245779,152.5,Rural Ward,13967,91.6,19.224,2932,confidential,confidential,Agropastoral,None,arusha/monduli/meserani,147.83,manyara/mbulu/maghang,7.27
manyara/mbulu/eshkesh,lon35.018.lat-3.968,Eshkesh,Mbulu,Manyara,35.01777473,-3.967964706,459,Rural Ward,5859,12.8,33.48,15367,confidential,confidential,Agropastoral,None,arusha/monduli/meserani,156.79,manyara/mbulu/maghang,22.54
manyara/mbulu/gehandu,lon35.627.lat-3.807,Gehandu,Mbulu,Manyara,35.62686867,-3.80651629,85.3,Rural Ward,15222,178.5,6.852,584,confidential,confidential,Smallholder,None,arusha/monduli/meserani,86.9,manyara/mbulu/daudi,11.46
manyara/mbulu/geterer,lon35.055.lat-4.218,Geterer,Mbulu,Manyara,35.05478695,-4.218435682,107,Rural Ward,11445,107,38.271,4095,confidential,confidential,Agropastoral,None,arusha/monduli/meserani,162.89,manyara/mbulu/haydom,7.61
manyara/mbulu/gidihim,lon35.326.lat-4.122,Gidihim,Mbulu,Manyara,35.3256212,-4.12195544,108.7,Rural Ward,11198,103,19.876,2161,confidential,confidential,Agropastoral,None,arusha/monduli/meserani,131.23,manyara/mbulu/dongobesh,6.77
manyara/mbulu/gunyoda,lon35.463.lat-3.812,Gunyoda,Mbulu,Manyara,35.46339544,-3.812319929,105.3,Rural Ward,11477,109,10.721,1129,confidential,confidential,Smallholder,Primary,arusha/monduli/meserani,104.55,manyara/mbulu/endagikot,9.6
manyara/mbulu/hayderer,lon35.193.lat-4.218,Hayderer,Mbulu,Manyara,35.19315784,-4.217780844,124.4,Rural Ward,13004,104.5,17.321,2155,confidential,confidential,Agropastoral,None,arusha/monduli/meserani,149.19,manyara/mbulu/maretadu,8.58
manyara/mbulu/haydom,lon35.001.lat-4.175,Haydom,Mbulu,Manyara,35.00138752,-4.175419536,127.9,Mixed Ward,23013,179.9,42.407,5424,confidential,confidential,Agropastoral,Primary,arusha/monduli/meserani,166.29,manyara/mbulu/maghang,16.68
manyara/mbulu/imboru,lon35.512.lat-3.845,Imboru,Mbulu,Manyara,35.51244555,-3.845417266,27,Urban Ward,7938,294,10.895,294,confidential,confidential,Smallholder,None,arusha/monduli/meserani,100.3,manyara/mbulu/endagikot,3.96
manyara/mbulu/kainam,lon35.584.lat-3.905,Kainam,Mbulu,Manyara,35.58423357,-3.904733988,33.7,Rural Ward,7679,227.9,11.04,372,confidential,confidential,Smallholder,None,arusha/monduli/meserani,95.02,manyara/mbulu/endagikot,8.01
manyara/mbulu/maghang,lon35.144.lat-4.127,Maghang,Mbulu,Manyara,35.1437166,-4.126992041,106.8,Rural Ward,13624,127.6,19.141,2044,confidential,confidential,Agropastoral,Primary,arusha/monduli/meserani,149.67,manyara/mbulu/maretadu,9.27
manyara/mbulu/marang,lon35.562.lat-3.715,Marang,Mbulu,Manyara,35.56188682,-3.71522326,70.3,Rural Ward,7377,104.9,1.396,98,confidential,confidential,Agropastoral,None,arusha/monduli/meserani,91.63,manyara/mbulu/daudi,5.1
manyara/mbulu/maretadu,lon35.225.lat-4.147,Maretadu,Mbulu,Manyara,35.22474639,-4.147352767,140.1,Rural Ward,14343,102.4,17.192,2409,confidential,confidential,Agropastoral,Primary,arusha/monduli/meserani,142.49,manyara/mbulu/maghang,9.27
manyara/mbulu/masieda,lon35.389.lat-3.723,Masieda,Mbulu,Manyara,35.38930552,-3.722833683,373.9,Rural Ward,9929,26.6,15.017,5615,confidential,confidential,Agropastoral,None,arusha/monduli/meserani,110.68,manyara/mbulu/gunyoda,12.91
manyara/mbulu/masqaroda,lon35.368.lat-3.887,Masqaroda,Mbulu,Manyara,35.36773081,-3.887387729,205.7,Rural Ward,10262,49.9,21.629,4449,confidential,confidential,Agropastoral,Primary,arusha/monduli/meserani,117.02,manyara/mbulu/bashay,13.47
manyara/mbulu/murray,lon35.550.lat-4.012,Murray,Mbulu,Manyara,35.55049306,-4.011711357,121.8,Rural Ward,9965,81.8,39.823,4850,confidential,confidential,Smallholder,None,arusha/monduli/meserani,103.44,manyara/babati/kiru,13.02
manyara/mbulu/nahasey,lon35.642.lat-3.891,Nahasey,Mbulu,Manyara,35.64225963,-3.891327633,106.3,Rural Ward,9844,92.6,13.556,1441,confidential,confidential,Smallholder,None,arusha/monduli/meserani,88.51,manyara/mbulu/endagikot,14.05
manyara/mbulu/nambisi,lon35.555.lat-3.941,Nambisi,Mbulu,Manyara,35.55512716,-3.941305479,58,Rural Ward,8874,153,9.394,545,confidential,confidential,Smallholder,None,arusha/monduli/meserani,99.58,manyara/mbulu/endagikot,8
manyara/mbulu/sanubaray,lon35.570.lat-3.862,Sanu Baray,Mbulu,Manyara,35.56951448,-3.861698953,9.3,Urban Ward,6233,670.2,13.969,130,confidential,confidential,Urban,None,arusha/monduli/meserani,94.85,manyara/mbulu/endagikot,6.3
manyara/mbulu/tlawi,lon35.464.lat-3.927,Tlawi,Mbulu,Manyara,35.46385128,-3.927240341,93.3,Rural Ward,8547,91.6,1,93,confidential,confidential,Smallholder,None,arusha/monduli/meserani,108.36,manyara/mbulu/endagikot,7.76
manyara/mbulu/tumati,lon35.446.lat-4.071,Tumati,Mbulu,Manyara,35.44576456,-4.071220942,113.8,Rural Ward,12798,112.5,11.812,1344,confidential,confidential,Agropastoral,None,arusha/monduli/meserani,116.8,manyara/mbulu/dongobesh,8.55
manyara/mbulu/uhuru,lon35.558.lat-3.826,Uhuru,Mbulu,Manyara,35.55774801,-3.826220407,14.8,Urban Ward,7141,482.5,12.198,181,confidential,confidential,Smallholder,None,arusha/monduli/meserani,94.87,manyara/mbulu/endagikot,7.63
manyara/mbulu/yaedaampa,lon35.425.lat-4.003,Yaeda Ampa,Mbulu,Manyara,35.42459983,-4.003352677,117.9,Rural Ward,13138,111.4,17.681,2085,confidential,confidential,Agropastoral,None,arusha/monduli/meserani,115.62,manyara/mbulu/dongobesh,10.44
manyara/mbulu/yaedachini,lon35.201.lat-3.871,Yaeda Chini,Mbulu,Manyara,35.20080241,-3.871097873,542.7,Rural Ward,5420,10,18.256,9908,confidential,confidential,Agropastoral,None,arusha/monduli/meserani,134.4,manyara/mbulu/bashay,14.8
manyara/simanjiro/emboreet,lon36.396.lat-3.973,Emboreet,Simanjiro,Manyara,36.39619759,-3.973019132,927.3,Rural Ward,8860,9.6,28.129,26084,confidential,confidential,Agropastoral,None,arusha/monduli/meserani,43.75,arusha/monduli/lolkisale,22.58
manyara/simanjiro/endiantu,lon36.982.lat-3.585,Endiantu,Simanjiro,Manyara,36.98197429,-3.585070058,18.2,Urban Ward,13621,748.4,16.761,305,confidential,confidential,Agropastoral,None,arusha/arusha/bwawani,20.7,arusha/meru/mbuguni,9.58
manyara/simanjiro/endonyongijape,lon37.282.lat-4.441,Endonyongijape,Simanjiro,Manyara,37.28217863,-4.441025995,1523,Rural Ward,10153,6.7,18.943,28850,confidential,confidential,Pastoral,None,arusha/arusha/bwawani,111.39,manyara/simanjiro/orkesmet,10.83
manyara/simanjiro/kitwai,lon37.223.lat-4.841,Kitwai,Simanjiro,Manyara,37.22266231,-4.840569229,3657.4,Rural Ward,5914,1.6,18.739,68538,confidential,confidential,Pastoral,None,arusha/arusha/bwawani,149.58,manyara/simanjiro/orkesmet,42.19
manyara/simanjiro/komolo,lon36.689.lat-3.986,Komolo,Simanjiro,Manyara,36.68940404,-3.98624254,1295.5,Rural Ward,11555,8.9,24.746,32058,confidential,confidential,Pastoral,Primary,arusha/arusha/bwawani,48.41,manyara/simanjiro/terrat,16.75
manyara/simanjiro/liborsoit,lon37.403.lat-4.229,Liborsoit,Simanjiro,Manyara,37.40308783,-4.22868469,1035,Rural Ward,7207,7,15.324,15861,confidential,confidential,Pastoral,None,kilimanjaro/hai/machamekusini,98.48,manyara/simanjiro/orkesmet,35.39
manyara/simanjiro/loiborsiret,lon36.518.lat-4.361,Loiborsiret,Simanjiro,Manyara,36.51836901,-4.361005274,2031.5,Rural Ward,13569,6.7,22.112,44921,confidential,confidential,Agropastoral,Primary,arusha/monduli/meserani,88.25,manyara/simanjiro/komolo,45.79
manyara/simanjiro/mererani,lon37.000.lat-3.580,Mererani,Simanjiro,Manyara,36.99954127,-3.580160149,11.6,Urban Ward,13450,1159.5,17.523,203,confidential,confidential,Agropastoral,None,arusha/arusha/bwawani,22.59,arusha/meru/mbuguni,11.29
manyara/simanjiro/msituwatembo,lon37.300.lat-3.655,Msitu wa Tembo,Simanjiro,Manyara,37.29960812,-3.654533732,367.1,Rural Ward,12054,32.8,19.212,7053,confidential,confidential,Agropastoral,Primary,kilimanjaro/hai/machamekusini,33.62,kilimanjaro/moshi/kilemakusini,39.71
manyara/simanjiro/naberera,lon36.991.lat-4.176,Naberera,Simanjiro,Manyara,36.99072196,-4.176499472,2845.4,Mixed Ward,19814,7,22.239,63278,confidential,confidential,Pastoral,Primary,arusha/arusha/bwawani,71.41,manyara/simanjiro/orkesmet,38.56
manyara/simanjiro/naisinyai,lon37.144.lat-3.648,Naisinyai,Simanjiro,Manyara,37.14432509,-3.647721484,909.8,Rural Ward,11144,12.2,19.448,17693,confidential,confidential,Agropastoral,None,kilimanjaro/hai/machamekusini,34.73,manyara/simanjiro/msituwatembo,17.25
manyara/simanjiro/ngorika,lon37.367.lat-3.904,Ngorika,Simanjiro,Manyara,37.36652631,-3.903792864,722.3,Rural Ward,7417,10.3,18.163,13119,confidential,confidential,Pastoral,None,kilimanjaro/hai/machamekusini,62.21,manyara/simanjiro/msituwatembo,28.69
manyara/simanjiro/oljorono,lon36.657.lat-3.712,Oljoro  No. 5,Simanjiro,Manyara,36.65737936,-3.711622566,464,Rural Ward,15527,33.5,21.007,9747,confidential,confidential,Agropastoral,None,arusha/arusha/bwawani,22.53,arusha/arusha/oljoro,15.62
manyara/simanjiro/orkesmet,lon37.187.lat-4.463,Orkesmet,Simanjiro,Manyara,37.18693546,-4.462844856,12.4,Urban Ward,5325,429.4,21.561,267,confidential,confidential,Agropastoral,Primary,arusha/arusha/bwawani,108.9,manyara/simanjiro/naberera,38.56
manyara/simanjiro/ruvuremiti,lon37.734.lat-4.768,Ruvu Remiti,Simanjiro,Manyara,37.73370494,-4.768032126,2626.5,Rural Ward,5077,1.9,13.61,35747,confidential,confidential,Pastoral,None,kilimanjaro/hai/machamekusini,165.8,kilimanjaro/same/hedaru,35.54
manyara/simanjiro/shambarai,lon36.954.lat-3.780,Shambarai,Simanjiro,Manyara,36.9536817,-3.78040364,1088.6,Rural Ward,9420,8.7,23.734,25837,confidential,confidential,Pastoral,Primary,arusha/arusha/bwawani,29.69,arusha/meru/mbuguni,25.67
manyara/simanjiro/terrat,lon36.581.lat-3.882,Terrat,Simanjiro,Manyara,36.5808111,-3.881643761,287.4,Rural Ward,8586,29.9,25.936,7454,confidential,confidential,Agropastoral,Primary,arusha/monduli/meserani,40.49,manyara/simanjiro/komolo,16.75